<?xml version="1.0" encoding="UTF-8"?>
<gpx version="1.1" xmlns="http://www.topografix.com/GPX/1/1" xmlns:xsi="http://www.w3.org/2001/XMLSchema-instance" xsi:schemaLocation="http://www.topografix.com/GPX/1/1 http://www.topografix.com/GPX/1/1/gpx.xsd http://www.garmin.com/xmlschemas/GpxExtensions/v3 http://www.garmin.com/xmlschemas/GpxExtensionsv3.xsd http://www.garmin.com/xmlschemas/TrackPointExtension/v1 http://www.garmin.com/xmlschemas/TrackPointExtensionv1.xsd http://www.garmin.com/xmlschemas/PowerExtension/v1 http://www.garmin.com/xmlschemas/PowerExtensionv1.xsd http://www.topografix.com/GPX/gpx_style/0/2 http://www.topografix.com/GPX/gpx_style/0/2/gpx_style.xsd" xmlns:gpxtpx="http://www.garmin.com/xmlschemas/TrackPointExtension/v1" xmlns:gpxx="http://www.garmin.com/xmlschemas/GpxExtensions/v3" xmlns:gpxpx="http://www.garmin.com/xmlschemas/PowerExtension/v1" xmlns:gpx_style="http://www.topografix.com/GPX/gpx_style/0/2">
  <metadata>
    <name>10km</name>
    <author>
      <name>gpx.studio</name>
      <link href="https://gpx.studio"/>
    </author>
  </metadata>
  <trk>
    <name>10km</name>
    <extensions>
      <gpx_style:line>
        <gpx_style:color>43dcff</gpx_style:color>
      </gpx_style:line>
    </extensions>
    <trkseg>
      <trkpt lat="44.44217" lon="2.44299">
        <ele>484.1497778180992</ele>
      </trkpt>
      <trkpt lat="44.44218" lon="2.443">
        <ele>484.09035475485183</ele>
      </trkpt>
      <trkpt lat="44.44243" lon="2.44288">
        <ele>483.9620973969354</ele>
      </trkpt>
      <trkpt lat="44.44273" lon="2.44282">
        <ele>483.58709142892656</ele>
      </trkpt>
      <trkpt lat="44.44275" lon="2.44282">
        <ele>483.55445375051374</ele>
      </trkpt>
      <trkpt lat="44.44293" lon="2.4427">
        <ele>483.3517724444637</ele>
      </trkpt>
      <trkpt lat="44.44305" lon="2.44262">
        <ele>483.2014970659501</ele>
      </trkpt>
      <trkpt lat="44.44311" lon="2.44259">
        <ele>483.09900420713274</ele>
      </trkpt>
      <trkpt lat="44.4433" lon="2.44237">
        <ele>482.4652504340288</ele>
      </trkpt>
      <trkpt lat="44.44331" lon="2.44234">
        <ele>482.3627073733612</ele>
      </trkpt>
      <trkpt lat="44.44332" lon="2.44231">
        <ele>482.2601643070588</ele>
      </trkpt>
      <trkpt lat="44.44338" lon="2.44215">
        <ele>481.75673058496403</ele>
      </trkpt>
      <trkpt lat="44.44344" lon="2.44199">
        <ele>481.1827422873768</ele>
      </trkpt>
      <trkpt lat="44.44345" lon="2.44195">
        <ele>481.0338773333007</ele>
      </trkpt>
      <trkpt lat="44.44347" lon="2.4419">
        <ele>480.8349292872017</ele>
      </trkpt>
      <trkpt lat="44.44347" lon="2.44176">
        <ele>480.3455938205592</ele>
      </trkpt>
      <trkpt lat="44.44349" lon="2.44178">
        <ele>480.3502227035822</ele>
      </trkpt>
      <trkpt lat="44.44351" lon="2.44179">
        <ele>480.31989903096195</ele>
      </trkpt>
      <trkpt lat="44.4438" lon="2.44201">
        <ele>479.24412837987813</ele>
      </trkpt>
      <trkpt lat="44.44397" lon="2.44211">
        <ele>477.6960826038861</ele>
      </trkpt>
      <trkpt lat="44.44404" lon="2.44214">
        <ele>477.00363170854666</ele>
      </trkpt>
      <trkpt lat="44.44406" lon="2.44215">
        <ele>476.80848033889254</ele>
      </trkpt>
      <trkpt lat="44.44416" lon="2.44214">
        <ele>475.71078312280736</ele>
      </trkpt>
      <trkpt lat="44.44475" lon="2.44196">
        <ele>476.0765426720028</ele>
      </trkpt>
      <trkpt lat="44.44484" lon="2.44193">
        <ele>476.95653709131386</ele>
      </trkpt>
      <trkpt lat="44.44517" lon="2.44179">
        <ele>481.21937459534684</ele>
      </trkpt>
      <trkpt lat="44.44528" lon="2.44176">
        <ele>482.17989886199814</ele>
      </trkpt>
      <trkpt lat="44.44536" lon="2.44175">
        <ele>482.5277101233147</ele>
      </trkpt>
      <trkpt lat="44.44538" lon="2.44173">
        <ele>482.4877092194582</ele>
      </trkpt>
      <trkpt lat="44.44539" lon="2.44172">
        <ele>482.47083415667066</ele>
      </trkpt>
      <trkpt lat="44.44553" lon="2.44164">
        <ele>482.22860820849894</ele>
      </trkpt>
      <trkpt lat="44.44562" lon="2.44161">
        <ele>482.0636607999919</ele>
      </trkpt>
      <trkpt lat="44.44573" lon="2.44159">
        <ele>482.01690069954634</ele>
      </trkpt>
      <trkpt lat="44.44592" lon="2.44157">
        <ele>482.14556911145394</ele>
      </trkpt>
      <trkpt lat="44.44606" lon="2.44154">
        <ele>482.5554421298357</ele>
      </trkpt>
      <trkpt lat="44.44658" lon="2.44139">
        <ele>485.7769476705702</ele>
      </trkpt>
      <trkpt lat="44.44673" lon="2.44132">
        <ele>485.9996185493666</ele>
      </trkpt>
      <trkpt lat="44.44689" lon="2.44121">
        <ele>485.06065226127413</ele>
      </trkpt>
      <trkpt lat="44.44697" lon="2.44116">
        <ele>484.68278682833386</ele>
      </trkpt>
      <trkpt lat="44.44706" lon="2.44109">
        <ele>484.6708091814077</ele>
      </trkpt>
      <trkpt lat="44.44725" lon="2.44099">
        <ele>484.9695246390569</ele>
      </trkpt>
      <trkpt lat="44.44744" lon="2.44088">
        <ele>485.2222917031039</ele>
      </trkpt>
      <trkpt lat="44.448" lon="2.44058">
        <ele>486.1858060860264</ele>
      </trkpt>
      <trkpt lat="44.44823" lon="2.44045">
        <ele>485.9744077270351</ele>
      </trkpt>
      <trkpt lat="44.44848" lon="2.44025">
        <ele>485.1949456237265</ele>
      </trkpt>
      <trkpt lat="44.44874" lon="2.44003">
        <ele>485.1664470456672</ele>
      </trkpt>
      <trkpt lat="44.44911" lon="2.43967">
        <ele>486.4627660544847</ele>
      </trkpt>
      <trkpt lat="44.44946" lon="2.43941">
        <ele>486.14690405773024</ele>
      </trkpt>
      <trkpt lat="44.4497" lon="2.43919">
        <ele>485.4829273452056</ele>
      </trkpt>
      <trkpt lat="44.44983" lon="2.43907">
        <ele>485.4506859795668</ele>
      </trkpt>
      <trkpt lat="44.44992" lon="2.43902">
        <ele>485.64770373329566</ele>
      </trkpt>
      <trkpt lat="44.44999" lon="2.43902">
        <ele>485.8981902682696</ele>
      </trkpt>
      <trkpt lat="44.45002" lon="2.43903">
        <ele>486.0319310099084</ele>
      </trkpt>
      <trkpt lat="44.45008" lon="2.43905">
        <ele>486.39484903579586</ele>
      </trkpt>
      <trkpt lat="44.45023" lon="2.43904">
        <ele>486.73781688879353</ele>
      </trkpt>
      <trkpt lat="44.45049" lon="2.43897">
        <ele>486.3108015957763</ele>
      </trkpt>
      <trkpt lat="44.45058" lon="2.43893">
        <ele>486.02511852007245</ele>
      </trkpt>
      <trkpt lat="44.45077" lon="2.43891">
        <ele>486.89785585812933</ele>
      </trkpt>
      <trkpt lat="44.45087" lon="2.43889">
        <ele>487.71050135721526</ele>
      </trkpt>
      <trkpt lat="44.45126" lon="2.43875">
        <ele>491.15098305977983</ele>
      </trkpt>
      <trkpt lat="44.45183" lon="2.43847">
        <ele>492.640482268623</ele>
      </trkpt>
      <trkpt lat="44.45192" lon="2.43841">
        <ele>493.0290846204163</ele>
      </trkpt>
      <trkpt lat="44.45266" lon="2.43768">
        <ele>498.61254897560013</ele>
      </trkpt>
      <trkpt lat="44.45296" lon="2.43735">
        <ele>499.9495239080827</ele>
      </trkpt>
      <trkpt lat="44.45314" lon="2.43718">
        <ele>500.44195218721967</ele>
      </trkpt>
      <trkpt lat="44.45352" lon="2.43688">
        <ele>502.5237842788109</ele>
      </trkpt>
      <trkpt lat="44.45365" lon="2.43674">
        <ele>503.4637550411862</ele>
      </trkpt>
      <trkpt lat="44.45386" lon="2.43643">
        <ele>503.30712081277215</ele>
      </trkpt>
      <trkpt lat="44.45404" lon="2.43615">
        <ele>501.24699801872504</ele>
      </trkpt>
      <trkpt lat="44.45424" lon="2.43588">
        <ele>499.2391882813569</ele>
      </trkpt>
      <trkpt lat="44.45444" lon="2.43559">
        <ele>498.68306978294</ele>
      </trkpt>
      <trkpt lat="44.4546" lon="2.43539">
        <ele>498.36498055399693</ele>
      </trkpt>
      <trkpt lat="44.45478" lon="2.43523">
        <ele>496.7104006774352</ele>
      </trkpt>
      <trkpt lat="44.45499" lon="2.43505">
        <ele>494.0436612246058</ele>
      </trkpt>
      <trkpt lat="44.45521" lon="2.43493">
        <ele>491.16627113335096</ele>
      </trkpt>
      <trkpt lat="44.45543" lon="2.43484">
        <ele>487.78683574255604</ele>
      </trkpt>
      <trkpt lat="44.45571" lon="2.43476">
        <ele>484.48303378544887</ele>
      </trkpt>
      <trkpt lat="44.45591" lon="2.43473">
        <ele>482.41728561827324</ele>
      </trkpt>
      <trkpt lat="44.45617" lon="2.43472">
        <ele>480.06554241220095</ele>
      </trkpt>
      <trkpt lat="44.45649" lon="2.43474">
        <ele>476.3828599770095</ele>
      </trkpt>
      <trkpt lat="44.45686" lon="2.4348">
        <ele>472.8850923241011</ele>
      </trkpt>
      <trkpt lat="44.45708" lon="2.43487">
        <ele>473.02077368889087</ele>
      </trkpt>
      <trkpt lat="44.4573" lon="2.43479">
        <ele>471.76740835579193</ele>
      </trkpt>
      <trkpt lat="44.45737" lon="2.43479">
        <ele>471.767408355792</ele>
      </trkpt>
      <trkpt lat="44.45744" lon="2.43483">
        <ele>472.1057206200447</ele>
      </trkpt>
      <trkpt lat="44.45761" lon="2.43494">
        <ele>472.9824768032598</ele>
      </trkpt>
      <trkpt lat="44.4578" lon="2.4351">
        <ele>472.27930492858263</ele>
      </trkpt>
      <trkpt lat="44.45804" lon="2.43531">
        <ele>471.7499026178015</ele>
      </trkpt>
      <trkpt lat="44.45807" lon="2.43537">
        <ele>471.5412893010854</ele>
      </trkpt>
      <trkpt lat="44.45807" lon="2.43547">
        <ele>471.6004416931539</ele>
      </trkpt>
      <trkpt lat="44.45802" lon="2.43556">
        <ele>471.64765661693764</ele>
      </trkpt>
      <trkpt lat="44.45793" lon="2.43562">
        <ele>471.1860307547738</ele>
      </trkpt>
      <trkpt lat="44.45784" lon="2.43566">
        <ele>470.30434855496094</ele>
      </trkpt>
      <trkpt lat="44.45771" lon="2.43568">
        <ele>469.5861709055498</ele>
      </trkpt>
      <trkpt lat="44.45759" lon="2.43569">
        <ele>469.15261112669396</ele>
      </trkpt>
      <trkpt lat="44.45744" lon="2.43574">
        <ele>468.44379875552875</ele>
      </trkpt>
      <trkpt lat="44.45735" lon="2.4358">
        <ele>467.67378017643205</ele>
      </trkpt>
      <trkpt lat="44.45725" lon="2.43589">
        <ele>466.6846576835974</ele>
      </trkpt>
      <trkpt lat="44.45717" lon="2.436">
        <ele>465.4947027033652</ele>
      </trkpt>
      <trkpt lat="44.4571" lon="2.43614">
        <ele>464.3278401104739</ele>
      </trkpt>
      <trkpt lat="44.45708" lon="2.43623">
        <ele>463.5617446872922</ele>
      </trkpt>
      <trkpt lat="44.45708" lon="2.43637">
        <ele>462.61687563588004</ele>
      </trkpt>
      <trkpt lat="44.4571" lon="2.43655">
        <ele>461.2422692760481</ele>
      </trkpt>
      <trkpt lat="44.45714" lon="2.43678">
        <ele>461.07695592413233</ele>
      </trkpt>
      <trkpt lat="44.45722" lon="2.437">
        <ele>460.35375423897466</ele>
      </trkpt>
      <trkpt lat="44.45737" lon="2.43732">
        <ele>458.4602605095954</ele>
      </trkpt>
      <trkpt lat="44.45741" lon="2.43743">
        <ele>458.10558385786135</ele>
      </trkpt>
      <trkpt lat="44.45744" lon="2.43753">
        <ele>457.9163274761732</ele>
      </trkpt>
      <trkpt lat="44.45744" lon="2.43767">
        <ele>458.6691527692383</ele>
      </trkpt>
      <trkpt lat="44.45743" lon="2.43771">
        <ele>459.1052122067673</ele>
      </trkpt>
      <trkpt lat="44.45743" lon="2.43776">
        <ele>459.3382290955644</ele>
      </trkpt>
      <trkpt lat="44.45746" lon="2.43796">
        <ele>459.51296672832353</ele>
      </trkpt>
      <trkpt lat="44.45751" lon="2.43804">
        <ele>458.4371911889775</ele>
      </trkpt>
      <trkpt lat="44.45752" lon="2.43808">
        <ele>458.2617953252096</ele>
      </trkpt>
      <trkpt lat="44.4575" lon="2.43829">
        <ele>458.47476152102473</ele>
      </trkpt>
      <trkpt lat="44.45749" lon="2.43839">
        <ele>458.2519240632674</ele>
      </trkpt>
      <trkpt lat="44.45757" lon="2.43865">
        <ele>453.2660332216175</ele>
      </trkpt>
      <trkpt lat="44.45757" lon="2.4387">
        <ele>452.49432735080035</ele>
      </trkpt>
      <trkpt lat="44.45757" lon="2.43876">
        <ele>451.62962003865596</ele>
      </trkpt>
      <trkpt lat="44.45755" lon="2.43881">
        <ele>451.69800520390356</ele>
      </trkpt>
      <trkpt lat="44.45752" lon="2.4389">
        <ele>451.97494102613865</ele>
      </trkpt>
      <trkpt lat="44.45749" lon="2.4391">
        <ele>452.06891898131465</ele>
      </trkpt>
      <trkpt lat="44.45749" lon="2.43915">
        <ele>451.89288383790046</ele>
      </trkpt>
      <trkpt lat="44.45751" lon="2.4392">
        <ele>451.4041275788371</ele>
      </trkpt>
      <trkpt lat="44.45752" lon="2.4393">
        <ele>451.6879467102368</ele>
      </trkpt>
      <trkpt lat="44.45753" lon="2.43937">
        <ele>451.9440280021323</ele>
      </trkpt>
      <trkpt lat="44.45767" lon="2.43952">
        <ele>451.34674338300994</ele>
      </trkpt>
      <trkpt lat="44.45776" lon="2.43959">
        <ele>451.5574388874459</ele>
      </trkpt>
      <trkpt lat="44.45785" lon="2.43971">
        <ele>452.8024563414017</ele>
      </trkpt>
      <trkpt lat="44.45795" lon="2.44012">
        <ele>458.65282974829967</ele>
      </trkpt>
      <trkpt lat="44.45812" lon="2.4404">
        <ele>462.4150662391467</ele>
      </trkpt>
      <trkpt lat="44.45844" lon="2.44083">
        <ele>461.89030717960634</ele>
      </trkpt>
      <trkpt lat="44.45856" lon="2.44098">
        <ele>461.40687069162425</ele>
      </trkpt>
      <trkpt lat="44.45872" lon="2.44121">
        <ele>461.9455315992447</ele>
      </trkpt>
      <trkpt lat="44.45881" lon="2.44138">
        <ele>464.3587491325016</ele>
      </trkpt>
      <trkpt lat="44.45883" lon="2.44141">
        <ele>464.70825342858797</ele>
      </trkpt>
      <trkpt lat="44.45895" lon="2.44154">
        <ele>465.3470114877464</ele>
      </trkpt>
      <trkpt lat="44.45905" lon="2.44162">
        <ele>465.5315004902896</ele>
      </trkpt>
      <trkpt lat="44.45924" lon="2.44173">
        <ele>465.45813929706907</ele>
      </trkpt>
      <trkpt lat="44.45934" lon="2.44177">
        <ele>464.7566475461904</ele>
      </trkpt>
      <trkpt lat="44.45943" lon="2.44175">
        <ele>462.9441333382595</ele>
      </trkpt>
      <trkpt lat="44.45952" lon="2.44176">
        <ele>461.141576011508</ele>
      </trkpt>
      <trkpt lat="44.45958" lon="2.44179">
        <ele>459.76445879389803</ele>
      </trkpt>
      <trkpt lat="44.45964" lon="2.44186">
        <ele>458.61470476604933</ele>
      </trkpt>
      <trkpt lat="44.45974" lon="2.4421">
        <ele>457.51348336112636</ele>
      </trkpt>
      <trkpt lat="44.45984" lon="2.44234">
        <ele>455.3692454884226</ele>
      </trkpt>
      <trkpt lat="44.46" lon="2.44277">
        <ele>455.4841678429593</ele>
      </trkpt>
      <trkpt lat="44.46007" lon="2.44287">
        <ele>455.6511490962657</ele>
      </trkpt>
      <trkpt lat="44.46012" lon="2.44292">
        <ele>455.5976361657221</ele>
      </trkpt>
      <trkpt lat="44.46017" lon="2.44294">
        <ele>455.2951751124124</ele>
      </trkpt>
      <trkpt lat="44.46036" lon="2.44298">
        <ele>453.5999765937913</ele>
      </trkpt>
      <trkpt lat="44.46041" lon="2.443">
        <ele>453.27650221664544</ele>
      </trkpt>
      <trkpt lat="44.46041" lon="2.443">
        <ele>453.27650221664544</ele>
      </trkpt>
      <trkpt lat="44.46041" lon="2.443">
        <ele>453.27650221664544</ele>
      </trkpt>
      <trkpt lat="44.46038" lon="2.44321">
        <ele>457.65964826770283</ele>
      </trkpt>
      <trkpt lat="44.46039" lon="2.44339">
        <ele>460.8792379401631</ele>
      </trkpt>
      <trkpt lat="44.4603" lon="2.44339">
        <ele>461.325951773589</ele>
      </trkpt>
      <trkpt lat="44.46029" lon="2.44343">
        <ele>462.0026256783876</ele>
      </trkpt>
      <trkpt lat="44.46028" lon="2.44367">
        <ele>465.9043590497588</ele>
      </trkpt>
      <trkpt lat="44.46035" lon="2.4437">
        <ele>466.4128381628518</ele>
      </trkpt>
      <trkpt lat="44.46042" lon="2.44372">
        <ele>466.6760526210106</ele>
      </trkpt>
      <trkpt lat="44.46046" lon="2.44375">
        <ele>466.9301583183618</ele>
      </trkpt>
      <trkpt lat="44.46065" lon="2.44393">
        <ele>469.31099209870047</ele>
      </trkpt>
      <trkpt lat="44.46071" lon="2.444">
        <ele>470.9943924096641</ele>
      </trkpt>
      <trkpt lat="44.46081" lon="2.4441">
        <ele>473.4190604670913</ele>
      </trkpt>
      <trkpt lat="44.46098" lon="2.44418">
        <ele>474.83551725242353</ele>
      </trkpt>
      <trkpt lat="44.4613" lon="2.44434">
        <ele>476.1698897433469</ele>
      </trkpt>
      <trkpt lat="44.46152" lon="2.44444">
        <ele>475.8777957943232</ele>
      </trkpt>
      <trkpt lat="44.46171" lon="2.44454">
        <ele>476.85883232916734</ele>
      </trkpt>
      <trkpt lat="44.46197" lon="2.44462">
        <ele>478.0266869379217</ele>
      </trkpt>
      <trkpt lat="44.46211" lon="2.44468">
        <ele>478.58446551082227</ele>
      </trkpt>
      <trkpt lat="44.4622" lon="2.44476">
        <ele>479.5288231940219</ele>
      </trkpt>
      <trkpt lat="44.46261" lon="2.44518">
        <ele>484.73488595395145</ele>
      </trkpt>
      <trkpt lat="44.46273" lon="2.44536">
        <ele>486.2300955154009</ele>
      </trkpt>
      <trkpt lat="44.46283" lon="2.44558">
        <ele>486.73377188525103</ele>
      </trkpt>
      <trkpt lat="44.46302" lon="2.44608">
        <ele>491.92098301279043</ele>
      </trkpt>
      <trkpt lat="44.46311" lon="2.4464">
        <ele>494.60885682730066</ele>
      </trkpt>
      <trkpt lat="44.46314" lon="2.44669">
        <ele>497.0961650327393</ele>
      </trkpt>
      <trkpt lat="44.46313" lon="2.44697">
        <ele>497.6371213136712</ele>
      </trkpt>
      <trkpt lat="44.46311" lon="2.44729">
        <ele>496.4491359917773</ele>
      </trkpt>
      <trkpt lat="44.46312" lon="2.44763">
        <ele>494.02819375722277</ele>
      </trkpt>
      <trkpt lat="44.46315" lon="2.44804">
        <ele>493.8328086609963</ele>
      </trkpt>
      <trkpt lat="44.46318" lon="2.44867">
        <ele>494.20458039388166</ele>
      </trkpt>
      <trkpt lat="44.46324" lon="2.44952">
        <ele>493.39463009433894</ele>
      </trkpt>
      <trkpt lat="44.46325" lon="2.44984">
        <ele>492.2518345284744</ele>
      </trkpt>
      <trkpt lat="44.46325" lon="2.45044">
        <ele>492.6931412722223</ele>
      </trkpt>
      <trkpt lat="44.46324" lon="2.45058">
        <ele>492.92937175346145</ele>
      </trkpt>
      <trkpt lat="44.46323" lon="2.45061">
        <ele>493.13058247215656</ele>
      </trkpt>
      <trkpt lat="44.46326" lon="2.45069">
        <ele>493.091734685633</ele>
      </trkpt>
      <trkpt lat="44.46326" lon="2.45068">
        <ele>493.05678215234127</ele>
      </trkpt>
      <trkpt lat="44.46246" lon="2.45078">
        <ele>493.8966664430693</ele>
      </trkpt>
      <trkpt lat="44.46223" lon="2.45084">
        <ele>492.2590441843501</ele>
      </trkpt>
      <trkpt lat="44.46186" lon="2.45098">
        <ele>490.92850055039673</ele>
      </trkpt>
      <trkpt lat="44.46126" lon="2.45116">
        <ele>492.1516903764</ele>
      </trkpt>
      <trkpt lat="44.46118" lon="2.45118">
        <ele>492.6038568032104</ele>
      </trkpt>
      <trkpt lat="44.46114" lon="2.45118">
        <ele>492.8594950869684</ele>
      </trkpt>
      <trkpt lat="44.46112" lon="2.45116">
        <ele>493.01338860406577</ele>
      </trkpt>
      <trkpt lat="44.46109" lon="2.45111">
        <ele>493.0795483989877</ele>
      </trkpt>
      <trkpt lat="44.46103" lon="2.45064">
        <ele>493</ele>
      </trkpt>
      <trkpt lat="44.46102" lon="2.45056">
        <ele>492.90933617777324</ele>
      </trkpt>
      <trkpt lat="44.46098" lon="2.45048">
        <ele>492.90000000000146</ele>
      </trkpt>
      <trkpt lat="44.46074" lon="2.45026">
        <ele>493</ele>
      </trkpt>
      <trkpt lat="44.46052" lon="2.45">
        <ele>493.6293333333922</ele>
      </trkpt>
      <trkpt lat="44.46026" lon="2.44951">
        <ele>494.3420074666395</ele>
      </trkpt>
      <trkpt lat="44.46016" lon="2.44941">
        <ele>494.56343750904057</ele>
      </trkpt>
      <trkpt lat="44.45988" lon="2.44924">
        <ele>493.8069116373736</ele>
      </trkpt>
      <trkpt lat="44.45939" lon="2.44893">
        <ele>492.2643485340805</ele>
      </trkpt>
      <trkpt lat="44.459387" lon="2.448935">
        <ele>492.2409288495901</ele>
      </trkpt>
      <trkpt lat="44.459385" lon="2.448934">
        <ele>492.24078157406274</ele>
      </trkpt>
      <trkpt lat="44.457859" lon="2.448061">
        <ele>498.7056752309575</ele>
      </trkpt>
      <trkpt lat="44.457516" lon="2.447911">
        <ele>499.09592874213206</ele>
      </trkpt>
      <trkpt lat="44.457125" lon="2.447754">
        <ele>499.7818675157391</ele>
      </trkpt>
      <trkpt lat="44.456619" lon="2.447441">
        <ele>499.28967143278675</ele>
      </trkpt>
      <trkpt lat="44.456055" lon="2.447048">
        <ele>495.6554631266749</ele>
      </trkpt>
      <trkpt lat="44.455617" lon="2.446712">
        <ele>495.67402631645166</ele>
      </trkpt>
      <trkpt lat="44.455464" lon="2.446633">
        <ele>496.6492007373376</ele>
      </trkpt>
      <trkpt lat="44.454957" lon="2.446427">
        <ele>498.2691307701671</ele>
      </trkpt>
      <trkpt lat="44.454841" lon="2.446401">
        <ele>498.07681579808775</ele>
      </trkpt>
      <trkpt lat="44.454841" lon="2.446401">
        <ele>498.07681579808775</ele>
      </trkpt>
      <trkpt lat="44.454777" lon="2.446327">
        <ele>497.9316414644014</ele>
      </trkpt>
      <trkpt lat="44.454567" lon="2.446639">
        <ele>497.1597034583855</ele>
      </trkpt>
      <trkpt lat="44.454464" lon="2.446845">
        <ele>496.4837640193764</ele>
      </trkpt>
      <trkpt lat="44.454327" lon="2.447182">
        <ele>495.4285367251383</ele>
      </trkpt>
      <trkpt lat="44.454153" lon="2.447573">
        <ele>494.6573597986728</ele>
      </trkpt>
      <trkpt lat="44.45347" lon="2.448901">
        <ele>491.1089938181223</ele>
      </trkpt>
      <trkpt lat="44.453332" lon="2.449228">
        <ele>490.6571395941084</ele>
      </trkpt>
      <trkpt lat="44.453198" lon="2.449466">
        <ele>489.13822440728654</ele>
      </trkpt>
      <trkpt lat="44.4531" lon="2.449686">
        <ele>487.41093909829004</ele>
      </trkpt>
      <trkpt lat="44.4531" lon="2.449686">
        <ele>487.41093909829004</ele>
      </trkpt>
      <trkpt lat="44.453088" lon="2.449715">
        <ele>487.166796581204</ele>
      </trkpt>
      <trkpt lat="44.453" lon="2.44995">
        <ele>485.5077197239523</ele>
      </trkpt>
      <trkpt lat="44.452892" lon="2.450289">
        <ele>483.2428733232672</ele>
      </trkpt>
      <trkpt lat="44.452814" lon="2.450562">
        <ele>482.0132425761659</ele>
      </trkpt>
      <trkpt lat="44.452581" lon="2.451186">
        <ele>480.7595770247288</ele>
      </trkpt>
      <trkpt lat="44.452507" lon="2.451418">
        <ele>480.2820427377718</ele>
      </trkpt>
      <trkpt lat="44.452418" lon="2.451814">
        <ele>477.4811463960366</ele>
      </trkpt>
      <trkpt lat="44.452379" lon="2.451907">
        <ele>476.5305719818464</ele>
      </trkpt>
      <trkpt lat="44.452449" lon="2.452011">
        <ele>474.9353443365228</ele>
      </trkpt>
      <trkpt lat="44.45254" lon="2.452121">
        <ele>473.2518919072743</ele>
      </trkpt>
      <trkpt lat="44.452677" lon="2.452342">
        <ele>470.8958478870024</ele>
      </trkpt>
      <trkpt lat="44.452788" lon="2.452563">
        <ele>469.6308427093686</ele>
      </trkpt>
      <trkpt lat="44.452929" lon="2.452792">
        <ele>469.40251051502673</ele>
      </trkpt>
      <trkpt lat="44.452944" lon="2.452889">
        <ele>469.134566345884</ele>
      </trkpt>
      <trkpt lat="44.452875" lon="2.452857">
        <ele>468.3690163066327</ele>
      </trkpt>
      <trkpt lat="44.452778" lon="2.452857">
        <ele>467.02842474914837</ele>
      </trkpt>
      <trkpt lat="44.452588" lon="2.452914">
        <ele>464.1758818982282</ele>
      </trkpt>
      <trkpt lat="44.452259" lon="2.453041">
        <ele>458.3373014761137</ele>
      </trkpt>
      <trkpt lat="44.452231" lon="2.45305">
        <ele>457.9046560430651</ele>
      </trkpt>
      <trkpt lat="44.451936" lon="2.453157">
        <ele>452.6272571087584</ele>
      </trkpt>
      <trkpt lat="44.4519" lon="2.453186">
        <ele>451.71190803479476</ele>
      </trkpt>
      <trkpt lat="44.451889" lon="2.453239">
        <ele>450.93081463124</ele>
      </trkpt>
      <trkpt lat="44.451911" lon="2.453279">
        <ele>450.87584562386655</ele>
      </trkpt>
      <trkpt lat="44.451958" lon="2.453292">
        <ele>451.51095519449973</ele>
      </trkpt>
      <trkpt lat="44.452049" lon="2.453276">
        <ele>453.1766564548725</ele>
      </trkpt>
      <trkpt lat="44.452406" lon="2.453151">
        <ele>458.57835098691436</ele>
      </trkpt>
      <trkpt lat="44.452455" lon="2.453165">
        <ele>459.1727910123761</ele>
      </trkpt>
      <trkpt lat="44.452498" lon="2.453219">
        <ele>459.35562691832973</ele>
      </trkpt>
      <trkpt lat="44.452525" lon="2.45328">
        <ele>459.3428864705851</ele>
      </trkpt>
      <trkpt lat="44.452528" lon="2.453282">
        <ele>459.3804364810706</ele>
      </trkpt>
      <trkpt lat="44.45253" lon="2.45328">
        <ele>459.4326551268817</ele>
      </trkpt>
      <trkpt lat="44.45255" lon="2.45339">
        <ele>459.0269006962775</ele>
      </trkpt>
      <trkpt lat="44.45255" lon="2.4535">
        <ele>458.47101394804884</ele>
      </trkpt>
      <trkpt lat="44.45252" lon="2.45364">
        <ele>457.6836496971561</ele>
      </trkpt>
      <trkpt lat="44.45233" lon="2.45405">
        <ele>455.03250296274234</ele>
      </trkpt>
      <trkpt lat="44.45214" lon="2.45444">
        <ele>454.3900065387548</ele>
      </trkpt>
      <trkpt lat="44.45207" lon="2.45458">
        <ele>454.43527573845455</ele>
      </trkpt>
      <trkpt lat="44.45203" lon="2.45462">
        <ele>453.9548569387762</ele>
      </trkpt>
      <trkpt lat="44.45199" lon="2.45464">
        <ele>453.05933430348574</ele>
      </trkpt>
      <trkpt lat="44.45196" lon="2.45463">
        <ele>452.07020034822676</ele>
      </trkpt>
      <trkpt lat="44.45196" lon="2.4546">
        <ele>451.65076994816815</ele>
      </trkpt>
      <trkpt lat="44.45196" lon="2.45455">
        <ele>450.96680340205864</ele>
      </trkpt>
      <trkpt lat="44.45209" lon="2.45415">
        <ele>450.5995997580728</ele>
      </trkpt>
      <trkpt lat="44.45211" lon="2.45399">
        <ele>450.7413889541827</ele>
      </trkpt>
      <trkpt lat="44.4521" lon="2.45392">
        <ele>450.4807784756874</ele>
      </trkpt>
      <trkpt lat="44.45208" lon="2.45388">
        <ele>450.0658922879029</ele>
      </trkpt>
      <trkpt lat="44.45204" lon="2.45385">
        <ele>449.27599677873513</ele>
      </trkpt>
      <trkpt lat="44.45155" lon="2.45377">
        <ele>434.78143578713133</ele>
      </trkpt>
      <trkpt lat="44.45147" lon="2.45377">
        <ele>431.9732041801109</ele>
      </trkpt>
      <trkpt lat="44.45142" lon="2.45372">
        <ele>430.70647259667976</ele>
      </trkpt>
      <trkpt lat="44.4514" lon="2.45361">
        <ele>431.1757693627625</ele>
      </trkpt>
      <trkpt lat="44.45138" lon="2.4535">
        <ele>431.57842518985365</ele>
      </trkpt>
      <trkpt lat="44.45136" lon="2.45341">
        <ele>431.8777742565149</ele>
      </trkpt>
      <trkpt lat="44.45128" lon="2.45328">
        <ele>430.3216055184829</ele>
      </trkpt>
      <trkpt lat="44.45117" lon="2.45319">
        <ele>427.30988592021254</ele>
      </trkpt>
      <trkpt lat="44.45083" lon="2.45306">
        <ele>416.39149715593186</ele>
      </trkpt>
      <trkpt lat="44.45064" lon="2.45291">
        <ele>414.0502044471489</ele>
      </trkpt>
      <trkpt lat="44.45052" lon="2.45284">
        <ele>413.3418403490915</ele>
      </trkpt>
      <trkpt lat="44.45042" lon="2.45282">
        <ele>412.2038585015596</ele>
      </trkpt>
      <trkpt lat="44.45035" lon="2.45285">
        <ele>410.9510075416426</ele>
      </trkpt>
      <trkpt lat="44.45028" lon="2.4529">
        <ele>409.51333329677664</ele>
      </trkpt>
      <trkpt lat="44.4502" lon="2.45303">
        <ele>406.6084320806717</ele>
      </trkpt>
      <trkpt lat="44.45018" lon="2.45318">
        <ele>404.24037487069256</ele>
      </trkpt>
      <trkpt lat="44.45021" lon="2.45345">
        <ele>401.6296563661426</ele>
      </trkpt>
      <trkpt lat="44.45024" lon="2.4536">
        <ele>400.47273670647303</ele>
      </trkpt>
      <trkpt lat="44.45028" lon="2.45366">
        <ele>400.0788996026819</ele>
      </trkpt>
      <trkpt lat="44.45035" lon="2.45372">
        <ele>399.78524043005973</ele>
      </trkpt>
      <trkpt lat="44.45052" lon="2.45378">
        <ele>400.96565900828847</ele>
      </trkpt>
      <trkpt lat="44.45058" lon="2.45382">
        <ele>401.7200021685832</ele>
      </trkpt>
      <trkpt lat="44.45061" lon="2.45388">
        <ele>401.9089454752908</ele>
      </trkpt>
      <trkpt lat="44.45061" lon="2.454">
        <ele>401.3709139193883</ele>
      </trkpt>
      <trkpt lat="44.45058" lon="2.45408">
        <ele>400.375263260297</ele>
      </trkpt>
      <trkpt lat="44.45052" lon="2.45412">
        <ele>398.8299283317118</ele>
      </trkpt>
      <trkpt lat="44.45045" lon="2.45413">
        <ele>397.173764096201</ele>
      </trkpt>
      <trkpt lat="44.45025" lon="2.45405">
        <ele>395.4448077475415</ele>
      </trkpt>
      <trkpt lat="44.45013" lon="2.45405">
        <ele>394.7593065626993</ele>
      </trkpt>
      <trkpt lat="44.45005" lon="2.45409">
        <ele>393.6876317720544</ele>
      </trkpt>
      <trkpt lat="44.44999" lon="2.45415">
        <ele>392.20186680988354</ele>
      </trkpt>
      <trkpt lat="44.44986" lon="2.4543">
        <ele>388.8814536841247</ele>
      </trkpt>
      <trkpt lat="44.44953" lon="2.4547">
        <ele>379.0643165152753</ele>
      </trkpt>
      <trkpt lat="44.44941" lon="2.45488">
        <ele>376.31096924910946</ele>
      </trkpt>
      <trkpt lat="44.44938" lon="2.45503">
        <ele>374.94856204066207</ele>
      </trkpt>
      <trkpt lat="44.44938" lon="2.45511">
        <ele>374.44493824490223</ele>
      </trkpt>
      <trkpt lat="44.44931" lon="2.45524">
        <ele>373.24124566212794</ele>
      </trkpt>
      <trkpt lat="44.44916" lon="2.45538">
        <ele>370.8820705792754</ele>
      </trkpt>
      <trkpt lat="44.4489" lon="2.45566">
        <ele>367.85082242672297</ele>
      </trkpt>
      <trkpt lat="44.44873" lon="2.45583">
        <ele>365.3621599451802</ele>
      </trkpt>
      <trkpt lat="44.44856" lon="2.45595">
        <ele>362.6329356999105</ele>
      </trkpt>
      <trkpt lat="44.44851" lon="2.45597">
        <ele>361.61424808774706</ele>
      </trkpt>
      <trkpt lat="44.4485" lon="2.45597">
        <ele>361.41637193364534</ele>
      </trkpt>
      <trkpt lat="44.44846" lon="2.45602">
        <ele>360.42426516672526</ele>
      </trkpt>
      <trkpt lat="44.44814" lon="2.45614">
        <ele>354.6145298572597</ele>
      </trkpt>
      <trkpt lat="44.44797" lon="2.45619">
        <ele>353.3375418487591</ele>
      </trkpt>
      <trkpt lat="44.44781" lon="2.4562">
        <ele>352.08851050320123</ele>
      </trkpt>
      <trkpt lat="44.44771" lon="2.45623">
        <ele>351.14272539841494</ele>
      </trkpt>
      <trkpt lat="44.44762" lon="2.45602">
        <ele>350.87141944125847</ele>
      </trkpt>
      <trkpt lat="44.44753" lon="2.45586">
        <ele>351.10833348537375</ele>
      </trkpt>
      <trkpt lat="44.44739" lon="2.45573">
        <ele>351.10153173338716</ele>
      </trkpt>
      <trkpt lat="44.44728" lon="2.45574">
        <ele>351.60822443321086</ele>
      </trkpt>
      <trkpt lat="44.44717" lon="2.45568">
        <ele>352.5355922338597</ele>
      </trkpt>
      <trkpt lat="44.44703" lon="2.45557">
        <ele>354.4369166268291</ele>
      </trkpt>
      <trkpt lat="44.44697" lon="2.45553">
        <ele>355.13249783776797</ele>
      </trkpt>
      <trkpt lat="44.44695" lon="2.45552">
        <ele>355.3686574121679</ele>
      </trkpt>
      <trkpt lat="44.4469" lon="2.45563">
        <ele>356.13722322871456</ele>
      </trkpt>
      <trkpt lat="44.44685" lon="2.45576">
        <ele>357.0827510994403</ele>
      </trkpt>
      <trkpt lat="44.44682" lon="2.45584">
        <ele>357.7225317906576</ele>
      </trkpt>
      <trkpt lat="44.44682" lon="2.45601">
        <ele>358.3067215040801</ele>
      </trkpt>
      <trkpt lat="44.44678" lon="2.45612">
        <ele>359.48440678311135</ele>
      </trkpt>
      <trkpt lat="44.4467" lon="2.45628">
        <ele>361.98974305256456</ele>
      </trkpt>
      <trkpt lat="44.44656" lon="2.45681">
        <ele>364.5004622699662</ele>
      </trkpt>
      <trkpt lat="44.44646" lon="2.45702">
        <ele>364.9859724791724</ele>
      </trkpt>
      <trkpt lat="44.44633" lon="2.4572">
        <ele>366.0093863369791</ele>
      </trkpt>
      <trkpt lat="44.44621" lon="2.45738">
        <ele>366.33236262236096</ele>
      </trkpt>
      <trkpt lat="44.44613" lon="2.45747">
        <ele>366.1387914248846</ele>
      </trkpt>
      <trkpt lat="44.44601" lon="2.45752">
        <ele>367.03120674661614</ele>
      </trkpt>
      <trkpt lat="44.44593" lon="2.45755">
        <ele>367.7689044283909</ele>
      </trkpt>
      <trkpt lat="44.4458" lon="2.45756">
        <ele>369.9121691240981</ele>
      </trkpt>
      <trkpt lat="44.44564" lon="2.45755">
        <ele>373.0275134939943</ele>
      </trkpt>
      <trkpt lat="44.44548" lon="2.45752">
        <ele>376.7008104863579</ele>
      </trkpt>
      <trkpt lat="44.44526" lon="2.45752">
        <ele>381.3647471617251</ele>
      </trkpt>
      <trkpt lat="44.44506" lon="2.4575">
        <ele>388.518730853571</ele>
      </trkpt>
      <trkpt lat="44.44486" lon="2.45754">
        <ele>393.5612064020249</ele>
      </trkpt>
      <trkpt lat="44.44469" lon="2.45757">
        <ele>397.39483847571626</ele>
      </trkpt>
      <trkpt lat="44.44455" lon="2.4576">
        <ele>400.02350507780693</ele>
      </trkpt>
      <trkpt lat="44.44446" lon="2.4576">
        <ele>402.3565533676749</ele>
      </trkpt>
      <trkpt lat="44.44434" lon="2.45758">
        <ele>406.153877407858</ele>
      </trkpt>
      <trkpt lat="44.44425" lon="2.4576">
        <ele>407.49510479718555</ele>
      </trkpt>
      <trkpt lat="44.44415" lon="2.45764">
        <ele>407.94944924321067</ele>
      </trkpt>
      <trkpt lat="44.44392" lon="2.45766">
        <ele>411.28089171552494</ele>
      </trkpt>
      <trkpt lat="44.44366" lon="2.45765">
        <ele>413.89859043157213</ele>
      </trkpt>
      <trkpt lat="44.44339" lon="2.45759">
        <ele>415.48618299890336</ele>
      </trkpt>
      <trkpt lat="44.44298" lon="2.45742">
        <ele>423.9669012170098</ele>
      </trkpt>
      <trkpt lat="44.44266" lon="2.45739">
        <ele>428.2467303413907</ele>
      </trkpt>
      <trkpt lat="44.44222" lon="2.45733">
        <ele>430.20686134109326</ele>
      </trkpt>
      <trkpt lat="44.44198" lon="2.45736">
        <ele>430.2416828178975</ele>
      </trkpt>
      <trkpt lat="44.44181" lon="2.45729">
        <ele>433.9677058626638</ele>
      </trkpt>
      <trkpt lat="44.44177" lon="2.45729">
        <ele>434.64380728662127</ele>
      </trkpt>
      <trkpt lat="44.44163" lon="2.45715">
        <ele>440.2808620917213</ele>
      </trkpt>
      <trkpt lat="44.44158" lon="2.4571">
        <ele>442.13931776670967</ele>
      </trkpt>
      <trkpt lat="44.44142" lon="2.45702">
        <ele>445.45814932475156</ele>
      </trkpt>
      <trkpt lat="44.44116" lon="2.45699">
        <ele>448.6565851616646</ele>
      </trkpt>
      <trkpt lat="44.44114" lon="2.45698">
        <ele>448.96676285065655</ele>
      </trkpt>
      <trkpt lat="44.44095" lon="2.4569">
        <ele>452.40216602018603</ele>
      </trkpt>
      <trkpt lat="44.44081" lon="2.45686">
        <ele>454.58547588791805</ele>
      </trkpt>
      <trkpt lat="44.44076" lon="2.45685">
        <ele>455.371695278495</ele>
      </trkpt>
      <trkpt lat="44.44061" lon="2.45679">
        <ele>456.89634971746807</ele>
      </trkpt>
      <trkpt lat="44.44025" lon="2.45665">
        <ele>458.6829913342894</ele>
      </trkpt>
      <trkpt lat="44.44009" lon="2.4568">
        <ele>458.49356746588523</ele>
      </trkpt>
      <trkpt lat="44.44" lon="2.45698">
        <ele>458.16037458982373</ele>
      </trkpt>
      <trkpt lat="44.43993" lon="2.45721">
        <ele>458</ele>
      </trkpt>
      <trkpt lat="44.43987" lon="2.4573">
        <ele>458</ele>
      </trkpt>
      <trkpt lat="44.43981" lon="2.45732">
        <ele>458</ele>
      </trkpt>
      <trkpt lat="44.43977" lon="2.45731">
        <ele>458</ele>
      </trkpt>
      <trkpt lat="44.43964" lon="2.45723">
        <ele>458</ele>
      </trkpt>
      <trkpt lat="44.43944" lon="2.45716">
        <ele>458</ele>
      </trkpt>
      <trkpt lat="44.43935" lon="2.45716">
        <ele>458.0001229973127</ele>
      </trkpt>
      <trkpt lat="44.43927" lon="2.45719">
        <ele>457.9442410094314</ele>
      </trkpt>
      <trkpt lat="44.43921" lon="2.45722">
        <ele>457.7644142060933</ele>
      </trkpt>
      <trkpt lat="44.43913" lon="2.45725">
        <ele>457.45340111159214</ele>
      </trkpt>
      <trkpt lat="44.439" lon="2.45726">
        <ele>457.1438627916572</ele>
      </trkpt>
      <trkpt lat="44.43869" lon="2.45728">
        <ele>457.1665524685759</ele>
      </trkpt>
      <trkpt lat="44.43845" lon="2.45728">
        <ele>457.8848275212962</ele>
      </trkpt>
      <trkpt lat="44.438449" lon="2.457279">
        <ele>457.89895900798365</ele>
      </trkpt>
      <trkpt lat="44.438446" lon="2.45728">
        <ele>457.8938807860835</ele>
      </trkpt>
      <trkpt lat="44.438361" lon="2.457141">
        <ele>459.7503416045296</ele>
      </trkpt>
      <trkpt lat="44.43834" lon="2.457067">
        <ele>460.33333545704494</ele>
      </trkpt>
      <trkpt lat="44.438354" lon="2.457015">
        <ele>460.96302810886453</ele>
      </trkpt>
      <trkpt lat="44.438396" lon="2.456912">
        <ele>462.0981622386962</ele>
      </trkpt>
      <trkpt lat="44.438587" lon="2.456679">
        <ele>464.1698758870695</ele>
      </trkpt>
      <trkpt lat="44.438831" lon="2.456267">
        <ele>466.9397062305885</ele>
      </trkpt>
      <trkpt lat="44.438995" lon="2.455812">
        <ele>468.9033208066569</ele>
      </trkpt>
      <trkpt lat="44.439068" lon="2.455524">
        <ele>469.6487177406452</ele>
      </trkpt>
      <trkpt lat="44.439093" lon="2.455339">
        <ele>470.9636967084954</ele>
      </trkpt>
      <trkpt lat="44.438905" lon="2.455199">
        <ele>475.0564463995409</ele>
      </trkpt>
      <trkpt lat="44.43876" lon="2.455049">
        <ele>478.5337624361172</ele>
      </trkpt>
      <trkpt lat="44.43855" lon="2.454853">
        <ele>483.9807032204337</ele>
      </trkpt>
      <trkpt lat="44.438213" lon="2.454631">
        <ele>490.1424927963649</ele>
      </trkpt>
      <trkpt lat="44.437911" lon="2.454231">
        <ele>495.80384685345723</ele>
      </trkpt>
      <trkpt lat="44.437649" lon="2.454032">
        <ele>499.9696629331683</ele>
      </trkpt>
      <trkpt lat="44.437436" lon="2.453743">
        <ele>504.34694744609385</ele>
      </trkpt>
      <trkpt lat="44.437286" lon="2.45365">
        <ele>506.40081739494116</ele>
      </trkpt>
      <trkpt lat="44.437097" lon="2.453444">
        <ele>510.0775990115015</ele>
      </trkpt>
      <trkpt lat="44.436983" lon="2.453351">
        <ele>511.7354629890534</ele>
      </trkpt>
      <trkpt lat="44.436817" lon="2.453248">
        <ele>514.348986373578</ele>
      </trkpt>
      <trkpt lat="44.436719" lon="2.453233">
        <ele>515.7068122000524</ele>
      </trkpt>
      <trkpt lat="44.436639" lon="2.453255">
        <ele>516.0152115041427</ele>
      </trkpt>
      <trkpt lat="44.436563" lon="2.453245">
        <ele>516.6987592526892</ele>
      </trkpt>
      <trkpt lat="44.436133" lon="2.452926">
        <ele>522.1143768357123</ele>
      </trkpt>
      <trkpt lat="44.435851" lon="2.452783">
        <ele>523.5848732406743</ele>
      </trkpt>
      <trkpt lat="44.435849" lon="2.452783">
        <ele>523.581609857688</ele>
      </trkpt>
      <trkpt lat="44.435732" lon="2.452724">
        <ele>523.9406220051004</ele>
      </trkpt>
      <trkpt lat="44.435228" lon="2.452602">
        <ele>524.3784998900733</ele>
      </trkpt>
      <trkpt lat="44.435148" lon="2.452601">
        <ele>524.2596168938098</ele>
      </trkpt>
      <trkpt lat="44.434934" lon="2.452672">
        <ele>522.6713399929463</ele>
      </trkpt>
      <trkpt lat="44.434773" lon="2.452669">
        <ele>522.0551765727037</ele>
      </trkpt>
      <trkpt lat="44.434546" lon="2.452643">
        <ele>521.1959288129659</ele>
      </trkpt>
      <trkpt lat="44.434152" lon="2.45252">
        <ele>520.527880687594</ele>
      </trkpt>
      <trkpt lat="44.433595" lon="2.452369">
        <ele>524.1091175131509</ele>
      </trkpt>
      <trkpt lat="44.432886" lon="2.452214">
        <ele>533.3826150350689</ele>
      </trkpt>
      <trkpt lat="44.432549" lon="2.452089">
        <ele>534.4250224021731</ele>
      </trkpt>
      <trkpt lat="44.432287" lon="2.451992">
        <ele>534.5895061942758</ele>
      </trkpt>
      <trkpt lat="44.432189" lon="2.451972">
        <ele>534.2264562231496</ele>
      </trkpt>
      <trkpt lat="44.432127" lon="2.451984">
        <ele>534.0800633134329</ele>
      </trkpt>
      <trkpt lat="44.432011" lon="2.452027">
        <ele>533.7158647384499</ele>
      </trkpt>
      <trkpt lat="44.431646" lon="2.452113">
        <ele>531.6332152948431</ele>
      </trkpt>
      <trkpt lat="44.431525" lon="2.452153">
        <ele>530.7662035859203</ele>
      </trkpt>
      <trkpt lat="44.431425" lon="2.452215">
        <ele>530.161076020497</ele>
      </trkpt>
      <trkpt lat="44.431331" lon="2.452301">
        <ele>529.5822405067752</ele>
      </trkpt>
      <trkpt lat="44.431265" lon="2.452389">
        <ele>529.1982918503003</ele>
      </trkpt>
      <trkpt lat="44.431202" lon="2.452446">
        <ele>528.6846876222879</ele>
      </trkpt>
      <trkpt lat="44.431153" lon="2.452462">
        <ele>528.1996275903662</ele>
      </trkpt>
      <trkpt lat="44.431098" lon="2.452447">
        <ele>527.5015720822391</ele>
      </trkpt>
      <trkpt lat="44.43096" lon="2.452315">
        <ele>525.5566522892616</ele>
      </trkpt>
      <trkpt lat="44.430804" lon="2.452183">
        <ele>523.6238207371653</ele>
      </trkpt>
      <trkpt lat="44.4308170496642" lon="2.4521583919867282">
        <ele>523.5972878926794</ele>
      </trkpt>
      <trkpt lat="44.4308170496642" lon="2.4521583919867282">
        <ele>524.1711134069725</ele>
      </trkpt>
      <trkpt lat="44.43121200984831" lon="2.4522250106816728">
        <ele>527.9290289267068</ele>
      </trkpt>
      <trkpt lat="44.43121200984831" lon="2.4522250106816728">
        <ele>527.9290289267068</ele>
      </trkpt>
      <trkpt lat="44.43162493615242" lon="2.4519908408352364">
        <ele>529.7247723367341</ele>
      </trkpt>
      <trkpt lat="44.432065648369374" lon="2.451865843938522">
        <ele>534.8785595827743</ele>
      </trkpt>
      <trkpt lat="44.43216412478543" lon="2.451837913588662">
        <ele>535.8766199681558</ele>
      </trkpt>
      <trkpt lat="44.43216412478543" lon="2.451837913588662">
        <ele>535.8766199681558</ele>
      </trkpt>
      <trkpt lat="44.43216412478543" lon="2.451837913588662">
        <ele>535.8766199681558</ele>
      </trkpt>
      <trkpt lat="44.432243742859555" lon="2.4513097681689544">
        <ele>534.8735114931999</ele>
      </trkpt>
      <trkpt lat="44.432243742859555" lon="2.4513097681689544">
        <ele>534.8735114931999</ele>
      </trkpt>
      <trkpt lat="44.43244407708658" lon="2.450746007106599">
        <ele>534.3304530709011</ele>
      </trkpt>
      <trkpt lat="44.432644411313596" lon="2.450182246044243">
        <ele>531.5269483999887</ele>
      </trkpt>
      <trkpt lat="44.43284474554062" lon="2.4496184849818876">
        <ele>525.5748809760028</ele>
      </trkpt>
      <trkpt lat="44.432963789827255" lon="2.449283482149383">
        <ele>523.5523146120138</ele>
      </trkpt>
      <trkpt lat="44.432963789827255" lon="2.449283482149383">
        <ele>523.5523146120138</ele>
      </trkpt>
      <trkpt lat="44.4328188218203" lon="2.448687391927913">
        <ele>514.46839796825</ele>
      </trkpt>
      <trkpt lat="44.432803400986415" lon="2.4486239833974537">
        <ele>513.3168515947043</ele>
      </trkpt>
      <trkpt lat="44.432803400986415" lon="2.4486239833974537">
        <ele>513.3168515947043</ele>
      </trkpt>
      <trkpt lat="44.43251060947635" lon="2.448146060033516">
        <ele>502.31319591304435</ele>
      </trkpt>
      <trkpt lat="44.432277868508635" lon="2.4477661571251588">
        <ele>493.96843555857726</ele>
      </trkpt>
      <trkpt lat="44.4326043825044" lon="2.447333199018493">
        <ele>491.0165213297679</ele>
      </trkpt>
      <trkpt lat="44.432735" lon="2.44716">
        <ele>487.9567145811298</ele>
      </trkpt>
      <trkpt lat="44.432735" lon="2.44716">
        <ele>492.92003398968217</ele>
      </trkpt>
      <trkpt lat="44.432782" lon="2.447116">
        <ele>492.18721841818854</ele>
      </trkpt>
      <trkpt lat="44.432874" lon="2.447013">
        <ele>489.63903544906776</ele>
      </trkpt>
      <trkpt lat="44.432958" lon="2.446883">
        <ele>486.72101968452574</ele>
      </trkpt>
      <trkpt lat="44.433127" lon="2.446675">
        <ele>482.6135686937161</ele>
      </trkpt>
      <trkpt lat="44.433386" lon="2.446493">
        <ele>479.52439524252054</ele>
      </trkpt>
      <trkpt lat="44.43345" lon="2.446405">
        <ele>478.4934314958295</ele>
      </trkpt>
      <trkpt lat="44.433548" lon="2.44623">
        <ele>476.81441364268505</ele>
      </trkpt>
      <trkpt lat="44.4336" lon="2.446168">
        <ele>476.3654038491476</ele>
      </trkpt>
      <trkpt lat="44.433664" lon="2.4461">
        <ele>476.0006435368078</ele>
      </trkpt>
      <trkpt lat="44.433742" lon="2.446063">
        <ele>475.8847375143333</ele>
      </trkpt>
      <trkpt lat="44.433847" lon="2.44607">
        <ele>475.75072818610363</ele>
      </trkpt>
      <trkpt lat="44.433924" lon="2.446104">
        <ele>475.41664324652754</ele>
      </trkpt>
      <trkpt lat="44.434136" lon="2.446239">
        <ele>474.4141149478722</ele>
      </trkpt>
      <trkpt lat="44.434276" lon="2.446278">
        <ele>473.63584665994813</ele>
      </trkpt>
      <trkpt lat="44.434404" lon="2.446303">
        <ele>472.94823834993963</ele>
      </trkpt>
      <trkpt lat="44.434538" lon="2.446287">
        <ele>472.3723750036217</ele>
      </trkpt>
      <trkpt lat="44.43484" lon="2.446168">
        <ele>471.7448222313161</ele>
      </trkpt>
      <trkpt lat="44.4351" lon="2.446006">
        <ele>471.5590808191815</ele>
      </trkpt>
      <trkpt lat="44.435188" lon="2.445959">
        <ele>471.93265544061177</ele>
      </trkpt>
      <trkpt lat="44.435499" lon="2.445763">
        <ele>472.8469600097953</ele>
      </trkpt>
      <trkpt lat="44.435717" lon="2.445646">
        <ele>472.9435636996423</ele>
      </trkpt>
      <trkpt lat="44.435936" lon="2.445511">
        <ele>473.3310465486726</ele>
      </trkpt>
      <trkpt lat="44.436154" lon="2.445396">
        <ele>472.9952978612866</ele>
      </trkpt>
      <trkpt lat="44.436419" lon="2.445305">
        <ele>471.29681313525964</ele>
      </trkpt>
      <trkpt lat="44.436614" lon="2.445212">
        <ele>470.6387389959616</ele>
      </trkpt>
      <trkpt lat="44.436806" lon="2.445076">
        <ele>470.4326471900415</ele>
      </trkpt>
      <trkpt lat="44.437009" lon="2.44491">
        <ele>469.0418690486473</ele>
      </trkpt>
      <trkpt lat="44.437175" lon="2.444762">
        <ele>468.7158614858031</ele>
      </trkpt>
      <trkpt lat="44.43728" lon="2.444647">
        <ele>468.7238552680327</ele>
      </trkpt>
      <trkpt lat="44.437358" lon="2.444528">
        <ele>469.49652673453517</ele>
      </trkpt>
      <trkpt lat="44.437494" lon="2.44427">
        <ele>471.03319836547627</ele>
      </trkpt>
      <trkpt lat="44.437572" lon="2.444152">
        <ele>470.525244688057</ele>
      </trkpt>
      <trkpt lat="44.437631" lon="2.444064">
        <ele>470.1556534446656</ele>
      </trkpt>
      <trkpt lat="44.437733" lon="2.443982">
        <ele>469.21616508094735</ele>
      </trkpt>
      <trkpt lat="44.437843" lon="2.443923">
        <ele>468.321889650668</ele>
      </trkpt>
      <trkpt lat="44.438074" lon="2.443851">
        <ele>467.6365335940991</ele>
      </trkpt>
      <trkpt lat="44.438187" lon="2.443796">
        <ele>467.82777002658736</ele>
      </trkpt>
      <trkpt lat="44.438457" lon="2.44361">
        <ele>468.76458956813553</ele>
      </trkpt>
      <trkpt lat="44.43885" lon="2.443312">
        <ele>468.9625883837704</ele>
      </trkpt>
      <trkpt lat="44.439027" lon="2.443206">
        <ele>469.20461837258233</ele>
      </trkpt>
      <trkpt lat="44.43903" lon="2.44321">
        <ele>469.1528846509293</ele>
      </trkpt>
      <trkpt lat="44.43911" lon="2.44321">
        <ele>469.0863103999292</ele>
      </trkpt>
      <trkpt lat="44.43918" lon="2.44323">
        <ele>468.9073280001994</ele>
      </trkpt>
      <trkpt lat="44.43929" lon="2.4433">
        <ele>468.09176888866386</ele>
      </trkpt>
      <trkpt lat="44.43938" lon="2.44333">
        <ele>468.39359431117794</ele>
      </trkpt>
      <trkpt lat="44.43947" lon="2.44333">
        <ele>469.05369022386554</ele>
      </trkpt>
      <trkpt lat="44.43954" lon="2.44331">
        <ele>469.93128114668673</ele>
      </trkpt>
      <trkpt lat="44.43973" lon="2.44322">
        <ele>473.99777738123214</ele>
      </trkpt>
      <trkpt lat="44.43987" lon="2.44313">
        <ele>476.35295676647064</ele>
      </trkpt>
      <trkpt lat="44.43997" lon="2.44309">
        <ele>477.5901208638817</ele>
      </trkpt>
      <trkpt lat="44.4401" lon="2.44307">
        <ele>478.3867624047225</ele>
      </trkpt>
      <trkpt lat="44.44025" lon="2.44308">
        <ele>479.15603046151875</ele>
      </trkpt>
      <trkpt lat="44.44035" lon="2.44313">
        <ele>479.48861563867035</ele>
      </trkpt>
      <trkpt lat="44.44055" lon="2.44323">
        <ele>480.4737446050894</ele>
      </trkpt>
      <trkpt lat="44.44069" lon="2.44332">
        <ele>481.6257828332493</ele>
      </trkpt>
      <trkpt lat="44.44093" lon="2.44341">
        <ele>483.46630750124075</ele>
      </trkpt>
      <trkpt lat="44.441" lon="2.44343">
        <ele>483.5140575694387</ele>
      </trkpt>
      <trkpt lat="44.44109" lon="2.44345">
        <ele>483.4416031373534</ele>
      </trkpt>
      <trkpt lat="44.4413" lon="2.44345">
        <ele>483.15231656190093</ele>
      </trkpt>
      <trkpt lat="44.44162" lon="2.44331">
        <ele>483.7681696064547</ele>
      </trkpt>
      <trkpt lat="44.44163" lon="2.44326">
        <ele>483.9009965786723</ele>
      </trkpt>
      <trkpt lat="44.44165" lon="2.44324">
        <ele>483.98023702027353</ele>
      </trkpt>
      <trkpt lat="44.44167" lon="2.44324">
        <ele>484.012874095282</ele>
      </trkpt>
      <trkpt lat="44.44169" lon="2.44326">
        <ele>483.9989078037442</ele>
      </trkpt>
      <trkpt lat="44.44177" lon="2.44318">
        <ele>484.2227093011587</ele>
      </trkpt>
      <trkpt lat="44.44191" lon="2.44312">
        <ele>484.2925361329235</ele>
      </trkpt>
      <trkpt lat="44.44203" lon="2.44306">
        <ele>484.324212021521</ele>
      </trkpt>
      <trkpt lat="44.44217" lon="2.44299">
        <ele>484.1497778180992</ele>
      </trkpt>
      <trkpt lat="44.44217" lon="2.44299">
        <ele>484.1497778180992</ele>
      </trkpt>
    </trkseg>
  </trk>
</gpx>
