<?xml version="1.0" encoding="UTF-8"?>
<gpx version="1.1" schemaLocation="http://www.topografix.com/GPX/1/1 http://www.topografix.com/GPX/1/1/gpx.xsd http://www.garmin.com/xmlschemas/GpxExtensions/v3 http://www.garmin.com/xmlschemas/GpxExtensionsv3.xsd http://www.garmin.com/xmlschemas/TrackPointExtension/v1 http://www.garmin.com/xmlschemas/TrackPointExtensionv1.xsd http://www.garmin.com/xmlschemas/PowerExtension/v1 http://www.garmin.com/xmlschemas/PowerExtensionv1.xsd http://www.topografix.com/GPX/gpx_style/0/2 http://www.topografix.com/GPX/gpx_style/0/2/gpx_style.xsd" creator="https://gpx.studio" xmlns="http://www.topografix.com/GPX/1/1" xmlns:xsi="http://www.w3.org/2001/XMLSchema-instance" xsi:schemaLocation="http://www.topografix.com/GPX/1/1 http://www.topografix.com/GPX/1/1/gpx.xsd http://www.garmin.com/xmlschemas/GpxExtensions/v3 http://www.garmin.com/xmlschemas/GpxExtensionsv3.xsd http://www.garmin.com/xmlschemas/TrackPointExtension/v1 http://www.garmin.com/xmlschemas/TrackPointExtensionv1.xsd http://www.garmin.com/xmlschemas/PowerExtension/v1 http://www.garmin.com/xmlschemas/PowerExtensionv1.xsd http://www.topografix.com/GPX/gpx_style/0/2 http://www.topografix.com/GPX/gpx_style/0/2/gpx_style.xsd" xmlns:gpxtpx="http://www.garmin.com/xmlschemas/TrackPointExtension/v1" xmlns:gpxx="http://www.garmin.com/xmlschemas/GpxExtensions/v3" xmlns:gpxpx="http://www.garmin.com/xmlschemas/PowerExtension/v1" xmlns:gpx_style="http://www.topografix.com/GPX/gpx_style/0/2">
  <metadata>
    <name>17km</name>
    <author>
      <name>gpx.studio</name>
      <link href="https://gpx.studio"/>
    </author>
  </metadata>
  <trk>
    <name>17km</name>
    <extensions>
      <gpx_style:line>
        <gpx_style:color>b51aff</gpx_style:color>
        <gpx_style:width>5</gpx_style:width>
      </gpx_style:line>
    </extensions>
    <trkseg>
      <trkpt lat="44.44218" lon="2.44299">
        <ele>484.12337931921354</ele>
      </trkpt>
      <trkpt lat="44.44243" lon="2.44288">
        <ele>483.9620973969354</ele>
      </trkpt>
      <trkpt lat="44.44273" lon="2.44282">
        <ele>483.58709142892656</ele>
      </trkpt>
      <trkpt lat="44.44275" lon="2.44282">
        <ele>483.55445375051374</ele>
      </trkpt>
      <trkpt lat="44.44291" lon="2.44271">
        <ele>483.3634232888943</ele>
      </trkpt>
      <trkpt lat="44.44293" lon="2.4427">
        <ele>483.3517724444637</ele>
      </trkpt>
      <trkpt lat="44.44311" lon="2.44259">
        <ele>483.09900420713274</ele>
      </trkpt>
      <trkpt lat="44.4433" lon="2.44237">
        <ele>482.4652504340288</ele>
      </trkpt>
      <trkpt lat="44.44331" lon="2.44234">
        <ele>482.3627073733612</ele>
      </trkpt>
      <trkpt lat="44.44332" lon="2.44231">
        <ele>482.2601643070588</ele>
      </trkpt>
      <trkpt lat="44.44338" lon="2.44215">
        <ele>481.75673058496403</ele>
      </trkpt>
      <trkpt lat="44.44344" lon="2.44199">
        <ele>481.1827422873768</ele>
      </trkpt>
      <trkpt lat="44.44345" lon="2.44195">
        <ele>481.0338773333007</ele>
      </trkpt>
      <trkpt lat="44.44347" lon="2.4419">
        <ele>480.8349292872017</ele>
      </trkpt>
      <trkpt lat="44.44347" lon="2.44177">
        <ele>480.38054635385083</ele>
      </trkpt>
      <trkpt lat="44.44347" lon="2.44176">
        <ele>480.3455938205592</ele>
      </trkpt>
      <trkpt lat="44.44351" lon="2.44179">
        <ele>480.31989903096195</ele>
      </trkpt>
      <trkpt lat="44.4438" lon="2.44201">
        <ele>479.24412837987813</ele>
      </trkpt>
      <trkpt lat="44.44397" lon="2.44211">
        <ele>477.6960826038861</ele>
      </trkpt>
      <trkpt lat="44.44406" lon="2.44215">
        <ele>476.80848033889254</ele>
      </trkpt>
      <trkpt lat="44.44416" lon="2.44214">
        <ele>475.71078312280736</ele>
      </trkpt>
      <trkpt lat="44.44475" lon="2.44196">
        <ele>476.0765426720028</ele>
      </trkpt>
      <trkpt lat="44.44484" lon="2.44193">
        <ele>476.95653709131386</ele>
      </trkpt>
      <trkpt lat="44.44487" lon="2.44191">
        <ele>477.3644403636462</ele>
      </trkpt>
      <trkpt lat="44.44517" lon="2.44179">
        <ele>481.21937459534684</ele>
      </trkpt>
      <trkpt lat="44.44528" lon="2.44176">
        <ele>482.17989886199814</ele>
      </trkpt>
      <trkpt lat="44.44536" lon="2.44175">
        <ele>482.5277101233147</ele>
      </trkpt>
      <trkpt lat="44.44539" lon="2.44172">
        <ele>482.47083415667066</ele>
      </trkpt>
      <trkpt lat="44.44553" lon="2.44164">
        <ele>482.22860820849894</ele>
      </trkpt>
      <trkpt lat="44.44562" lon="2.44161">
        <ele>482.0636607999919</ele>
      </trkpt>
      <trkpt lat="44.44573" lon="2.44159">
        <ele>482.01690069954634</ele>
      </trkpt>
      <trkpt lat="44.44592" lon="2.44157">
        <ele>482.14556911145394</ele>
      </trkpt>
      <trkpt lat="44.44606" lon="2.44154">
        <ele>482.5554421298357</ele>
      </trkpt>
      <trkpt lat="44.44658" lon="2.44139">
        <ele>485.7769476705702</ele>
      </trkpt>
      <trkpt lat="44.44673" lon="2.44132">
        <ele>485.9996185493666</ele>
      </trkpt>
      <trkpt lat="44.44689" lon="2.44121">
        <ele>485.06065226127413</ele>
      </trkpt>
      <trkpt lat="44.44697" lon="2.44116">
        <ele>484.68278682833386</ele>
      </trkpt>
      <trkpt lat="44.44706" lon="2.44109">
        <ele>484.6708091814077</ele>
      </trkpt>
      <trkpt lat="44.44725" lon="2.44099">
        <ele>484.9695246390569</ele>
      </trkpt>
      <trkpt lat="44.44744" lon="2.44088">
        <ele>485.2222917031039</ele>
      </trkpt>
      <trkpt lat="44.448" lon="2.44058">
        <ele>486.1858060860264</ele>
      </trkpt>
      <trkpt lat="44.44823" lon="2.44045">
        <ele>485.9744077270351</ele>
      </trkpt>
      <trkpt lat="44.44848" lon="2.44025">
        <ele>485.1949456237265</ele>
      </trkpt>
      <trkpt lat="44.44874" lon="2.44003">
        <ele>485.1664470456672</ele>
      </trkpt>
      <trkpt lat="44.44911" lon="2.43967">
        <ele>486.4627660544847</ele>
      </trkpt>
      <trkpt lat="44.44946" lon="2.43941">
        <ele>486.14690405773024</ele>
      </trkpt>
      <trkpt lat="44.4497" lon="2.43919">
        <ele>485.4829273452056</ele>
      </trkpt>
      <trkpt lat="44.44983" lon="2.43907">
        <ele>485.4506859795668</ele>
      </trkpt>
      <trkpt lat="44.44992" lon="2.43902">
        <ele>485.64770373329566</ele>
      </trkpt>
      <trkpt lat="44.44999" lon="2.43902">
        <ele>485.8981902682696</ele>
      </trkpt>
      <trkpt lat="44.45" lon="2.439">
        <ele>485.86092693377367</ele>
      </trkpt>
      <trkpt lat="44.45011" lon="2.4387">
        <ele>484.29589607983075</ele>
      </trkpt>
      <trkpt lat="44.45017" lon="2.43859">
        <ele>483.29903545454727</ele>
      </trkpt>
      <trkpt lat="44.45026" lon="2.4385">
        <ele>482.1390260668939</ele>
      </trkpt>
      <trkpt lat="44.45035" lon="2.43838">
        <ele>480.37280042930695</ele>
      </trkpt>
      <trkpt lat="44.45048" lon="2.43814">
        <ele>477.3339242667896</ele>
      </trkpt>
      <trkpt lat="44.4508" lon="2.43773">
        <ele>472.8724969683892</ele>
      </trkpt>
      <trkpt lat="44.45114" lon="2.43735">
        <ele>464.8693932484862</ele>
      </trkpt>
      <trkpt lat="44.45123" lon="2.43727">
        <ele>463.22072683188264</ele>
      </trkpt>
      <trkpt lat="44.45148" lon="2.43713">
        <ele>461.26397893033123</ele>
      </trkpt>
      <trkpt lat="44.45158" lon="2.43702">
        <ele>459.5802480828301</ele>
      </trkpt>
      <trkpt lat="44.45167" lon="2.43689">
        <ele>457.3049466297916</ele>
      </trkpt>
      <trkpt lat="44.45191" lon="2.43646">
        <ele>448.70704893166743</ele>
      </trkpt>
      <trkpt lat="44.4525" lon="2.43521">
        <ele>431.3818571501754</ele>
      </trkpt>
      <trkpt lat="44.45269" lon="2.43494">
        <ele>429.64802501732606</ele>
      </trkpt>
      <trkpt lat="44.45291" lon="2.43467">
        <ele>430.09815964429345</ele>
      </trkpt>
      <trkpt lat="44.45314" lon="2.43443">
        <ele>431.84718536458695</ele>
      </trkpt>
      <trkpt lat="44.45375" lon="2.43393">
        <ele>440.4076891074432</ele>
      </trkpt>
      <trkpt lat="44.45399" lon="2.43376">
        <ele>440.40478553945303</ele>
      </trkpt>
      <trkpt lat="44.453989" lon="2.43376">
        <ele>440.3727278194608</ele>
      </trkpt>
      <trkpt lat="44.453994" lon="2.433757">
        <ele>440.38928464589674</ele>
      </trkpt>
      <trkpt lat="44.454237" lon="2.433652">
        <ele>441.66336847823237</ele>
      </trkpt>
      <trkpt lat="44.454647" lon="2.433555">
        <ele>443.0456545541998</ele>
      </trkpt>
      <trkpt lat="44.454856" lon="2.433457">
        <ele>442.91746685230197</ele>
      </trkpt>
      <trkpt lat="44.455197" lon="2.433333">
        <ele>443.5455536555505</ele>
      </trkpt>
      <trkpt lat="44.455492" lon="2.433271">
        <ele>445.20326458767966</ele>
      </trkpt>
      <trkpt lat="44.455772" lon="2.433235">
        <ele>448.2419466959672</ele>
      </trkpt>
      <trkpt lat="44.456028" lon="2.433247">
        <ele>449.17099974029793</ele>
      </trkpt>
      <trkpt lat="44.456289" lon="2.433308">
        <ele>447.87932817453884</ele>
      </trkpt>
      <trkpt lat="44.456526" lon="2.43341">
        <ele>447.5986452240152</ele>
      </trkpt>
      <trkpt lat="44.456744" lon="2.433517">
        <ele>449.74909961863926</ele>
      </trkpt>
      <trkpt lat="44.45705" lon="2.43359">
        <ele>448.94851019443036</ele>
      </trkpt>
      <trkpt lat="44.457246" lon="2.433669">
        <ele>446.84768400867483</ele>
      </trkpt>
      <trkpt lat="44.457632" lon="2.433804">
        <ele>440.60073266536637</ele>
      </trkpt>
      <trkpt lat="44.45777" lon="2.43382">
        <ele>438.7074825868894</ele>
      </trkpt>
      <trkpt lat="44.457566" lon="2.433261">
        <ele>426.936127811159</ele>
      </trkpt>
      <trkpt lat="44.457473" lon="2.433077">
        <ele>423.7537984759729</ele>
      </trkpt>
      <trkpt lat="44.457405" lon="2.432964">
        <ele>421.8949341461071</ele>
      </trkpt>
      <trkpt lat="44.457322" lon="2.432853">
        <ele>420.38557674455734</ele>
      </trkpt>
      <trkpt lat="44.457116" lon="2.432629">
        <ele>417.05134554626454</ele>
      </trkpt>
      <trkpt lat="44.457078" lon="2.432558">
        <ele>415.5141861448002</ele>
      </trkpt>
      <trkpt lat="44.457057" lon="2.432485">
        <ele>413.7422452523635</ele>
      </trkpt>
      <trkpt lat="44.457048" lon="2.432386">
        <ele>411.1062055825725</ele>
      </trkpt>
      <trkpt lat="44.45702" lon="2.432292">
        <ele>408.697638395304</ele>
      </trkpt>
      <trkpt lat="44.457008" lon="2.432215">
        <ele>406.5596827089794</ele>
      </trkpt>
      <trkpt lat="44.456963" lon="2.432114">
        <ele>403.9851079334513</ele>
      </trkpt>
      <trkpt lat="44.456924" lon="2.432047">
        <ele>402.26227614488494</ele>
      </trkpt>
      <trkpt lat="44.456889" lon="2.431877">
        <ele>397.1831855716191</ele>
      </trkpt>
      <trkpt lat="44.456817" lon="2.43169">
        <ele>391.8421858562165</ele>
      </trkpt>
      <trkpt lat="44.456665" lon="2.431522">
        <ele>387.7313983813084</ele>
      </trkpt>
      <trkpt lat="44.456592" lon="2.431462">
        <ele>386.1774454964325</ele>
      </trkpt>
      <trkpt lat="44.456528" lon="2.431348">
        <ele>382.9937307010417</ele>
      </trkpt>
      <trkpt lat="44.456497" lon="2.431307">
        <ele>381.98602646393806</ele>
      </trkpt>
      <trkpt lat="44.456521" lon="2.430839">
        <ele>371.56438116127003</ele>
      </trkpt>
      <trkpt lat="44.456492" lon="2.430641">
        <ele>368.0879405577817</ele>
      </trkpt>
      <trkpt lat="44.456452" lon="2.43045">
        <ele>365.6736483661543</ele>
      </trkpt>
      <trkpt lat="44.456384" lon="2.430393">
        <ele>364.410817114258</ele>
      </trkpt>
      <trkpt lat="44.456319" lon="2.430372">
        <ele>363.70176804681483</ele>
      </trkpt>
      <trkpt lat="44.456289" lon="2.430323">
        <ele>362.92942428269544</ele>
      </trkpt>
      <trkpt lat="44.456222" lon="2.430248">
        <ele>361.77049301955924</ele>
      </trkpt>
      <trkpt lat="44.45617" lon="2.43015">
        <ele>360.56684355391366</ele>
      </trkpt>
      <trkpt lat="44.456136" lon="2.430026">
        <ele>358.74813433410804</ele>
      </trkpt>
      <trkpt lat="44.456106" lon="2.429529">
        <ele>348.98715961190953</ele>
      </trkpt>
      <trkpt lat="44.456111" lon="2.429278">
        <ele>344.337920183042</ele>
      </trkpt>
      <trkpt lat="44.456102" lon="2.429184">
        <ele>342.65297771189387</ele>
      </trkpt>
      <trkpt lat="44.4561" lon="2.42918">
        <ele>342.5734055734706</ele>
      </trkpt>
      <trkpt lat="44.456102" lon="2.42918">
        <ele>342.5831935920203</ele>
      </trkpt>
      <trkpt lat="44.45612" lon="2.429084">
        <ele>341.1608058967977</ele>
      </trkpt>
      <trkpt lat="44.45623" lon="2.42883">
        <ele>339.68234534958594</ele>
      </trkpt>
      <trkpt lat="44.456316" lon="2.428649">
        <ele>338.11665055821686</ele>
      </trkpt>
      <trkpt lat="44.456351" lon="2.428495">
        <ele>336.9977826765392</ele>
      </trkpt>
      <trkpt lat="44.456451" lon="2.42843">
        <ele>335.81308668784396</ele>
      </trkpt>
      <trkpt lat="44.456728" lon="2.429">
        <ele>338.5613756440586</ele>
      </trkpt>
      <trkpt lat="44.456812" lon="2.429208">
        <ele>341.49934997502714</ele>
      </trkpt>
      <trkpt lat="44.456877" lon="2.429324">
        <ele>343.42486267295305</ele>
      </trkpt>
      <trkpt lat="44.457042" lon="2.429626">
        <ele>348.2607899263122</ele>
      </trkpt>
      <trkpt lat="44.457195" lon="2.429819">
        <ele>350.15956887044524</ele>
      </trkpt>
      <trkpt lat="44.45744" lon="2.430048">
        <ele>351.1652834479003</ele>
      </trkpt>
      <trkpt lat="44.457494" lon="2.430141">
        <ele>352.1049671827361</ele>
      </trkpt>
      <trkpt lat="44.457536" lon="2.430306">
        <ele>354.49883127286574</ele>
      </trkpt>
      <trkpt lat="44.457586" lon="2.43047">
        <ele>356.4756797679915</ele>
      </trkpt>
      <trkpt lat="44.457662" lon="2.430603">
        <ele>357.037488533265</ele>
      </trkpt>
      <trkpt lat="44.457818" lon="2.430769">
        <ele>357.1765311316129</ele>
      </trkpt>
      <trkpt lat="44.457919" lon="2.430845">
        <ele>357.6081064599338</ele>
      </trkpt>
      <trkpt lat="44.458008" lon="2.43089">
        <ele>358.01427927195596</ele>
      </trkpt>
      <trkpt lat="44.458059" lon="2.430906">
        <ele>358.09072406669225</ele>
      </trkpt>
      <trkpt lat="44.45806" lon="2.430907">
        <ele>358.1149487907702</ele>
      </trkpt>
      <trkpt lat="44.458059" lon="2.430906">
        <ele>358.09072406669225</ele>
      </trkpt>
      <trkpt lat="44.458145" lon="2.430935">
        <ele>358.66786107136966</ele>
      </trkpt>
      <trkpt lat="44.458306" lon="2.430957">
        <ele>359.15708839793285</ele>
      </trkpt>
      <trkpt lat="44.45837" lon="2.430979">
        <ele>359.52586981237516</ele>
      </trkpt>
      <trkpt lat="44.458392" lon="2.431012">
        <ele>360.40425532213226</ele>
      </trkpt>
      <trkpt lat="44.458403" lon="2.431046">
        <ele>361.38403830746836</ele>
      </trkpt>
      <trkpt lat="44.458386" lon="2.43108">
        <ele>362.54320121263174</ele>
      </trkpt>
      <trkpt lat="44.458363" lon="2.431097">
        <ele>363.18439663196955</ele>
      </trkpt>
      <trkpt lat="44.458287" lon="2.431074">
        <ele>362.9368340031496</ele>
      </trkpt>
      <trkpt lat="44.458224" lon="2.431069">
        <ele>362.81485596476233</ele>
      </trkpt>
      <trkpt lat="44.457976" lon="2.431075">
        <ele>363.2658792069884</ele>
      </trkpt>
      <trkpt lat="44.457816" lon="2.431039">
        <ele>363.1648619106044</ele>
      </trkpt>
      <trkpt lat="44.457698" lon="2.431042">
        <ele>364.4644140259885</ele>
      </trkpt>
      <trkpt lat="44.457647" lon="2.431082">
        <ele>365.8793928988754</ele>
      </trkpt>
      <trkpt lat="44.457621" lon="2.431173">
        <ele>368.4029478923885</ele>
      </trkpt>
      <trkpt lat="44.457627" lon="2.43124">
        <ele>369.9736651134217</ele>
      </trkpt>
      <trkpt lat="44.457647" lon="2.431275">
        <ele>370.62165550864154</ele>
      </trkpt>
      <trkpt lat="44.457695" lon="2.43131">
        <ele>370.880605599564</ele>
      </trkpt>
      <trkpt lat="44.457824" lon="2.431342">
        <ele>369.8528907589789</ele>
      </trkpt>
      <trkpt lat="44.458444" lon="2.431633">
        <ele>373.24943820626993</ele>
      </trkpt>
      <trkpt lat="44.458534" lon="2.431728">
        <ele>373.8765798447226</ele>
      </trkpt>
      <trkpt lat="44.458702" lon="2.432006">
        <ele>377.150643809147</ele>
      </trkpt>
      <trkpt lat="44.458784" lon="2.432107">
        <ele>377.92279016016374</ele>
      </trkpt>
      <trkpt lat="44.459043" lon="2.432314">
        <ele>378.07135855542845</ele>
      </trkpt>
      <trkpt lat="44.459232" lon="2.432448">
        <ele>378.31234923709434</ele>
      </trkpt>
      <trkpt lat="44.45953" lon="2.43262">
        <ele>377.61581087853693</ele>
      </trkpt>
      <trkpt lat="44.459648" lon="2.432714">
        <ele>378.5939815048426</ele>
      </trkpt>
      <trkpt lat="44.459725" lon="2.432815">
        <ele>380.40627125867263</ele>
      </trkpt>
      <trkpt lat="44.459814" lon="2.432974">
        <ele>383.5800311738614</ele>
      </trkpt>
      <trkpt lat="44.460183" lon="2.433463">
        <ele>392.0866315963152</ele>
      </trkpt>
      <trkpt lat="44.460183" lon="2.433461">
        <ele>392.0397954784739</ele>
      </trkpt>
      <trkpt lat="44.460379" lon="2.433721">
        <ele>395.62578477244466</ele>
      </trkpt>
      <trkpt lat="44.460459" lon="2.433809">
        <ele>397.0232880174493</ele>
      </trkpt>
      <trkpt lat="44.460526" lon="2.433841">
        <ele>396.72331758727825</ele>
      </trkpt>
      <trkpt lat="44.460396" lon="2.433886">
        <ele>400.67013333112635</ele>
      </trkpt>
      <trkpt lat="44.460243" lon="2.433906">
        <ele>404.1251445779586</ele>
      </trkpt>
      <trkpt lat="44.459553" lon="2.434102">
        <ele>421.9351748201072</ele>
      </trkpt>
      <trkpt lat="44.45941" lon="2.434091">
        <ele>423.26927129964633</ele>
      </trkpt>
      <trkpt lat="44.459216" lon="2.434037">
        <ele>424.45771776761455</ele>
      </trkpt>
      <trkpt lat="44.458954" lon="2.433944">
        <ele>427.7442870826331</ele>
      </trkpt>
      <trkpt lat="44.458714" lon="2.433883">
        <ele>429.614577883243</ele>
      </trkpt>
      <trkpt lat="44.458398" lon="2.433837">
        <ele>432.29084389864795</ele>
      </trkpt>
      <trkpt lat="44.45802427182078" lon="2.4338268831543846">
        <ele>435.7656129978609</ele>
      </trkpt>
      <trkpt lat="44.45802427182078" lon="2.4338268831543846">
        <ele>436.60572843278123</ele>
      </trkpt>
      <trkpt lat="44.45781859536274" lon="2.4338177351765182">
        <ele>438.067042796366</ele>
      </trkpt>
      <trkpt lat="44.45797396909671" lon="2.4344089162606517">
        <ele>453.76434272954083</ele>
      </trkpt>
      <trkpt lat="44.458129342830695" lon="2.4350000973447847">
        <ele>466.34405385782486</ele>
      </trkpt>
      <trkpt lat="44.45823751157591" lon="2.4354116682997264">
        <ele>472.0395985971091</ele>
      </trkpt>
      <trkpt lat="44.45823751157591" lon="2.4354116682997264">
        <ele>470.47809527003085</ele>
      </trkpt>
      <trkpt lat="44.45823751157591" lon="2.4354116682997264">
        <ele>470.47809527003085</ele>
      </trkpt>
      <trkpt lat="44.458205" lon="2.435487">
        <ele>471.02851556599137</ele>
      </trkpt>
      <trkpt lat="44.458065" lon="2.435474">
        <ele>471.6233702931032</ele>
      </trkpt>
      <trkpt lat="44.458015" lon="2.435557">
        <ele>471.66082931182115</ele>
      </trkpt>
      <trkpt lat="44.45801275135172" lon="2.4355586283315187">
        <ele>471.6565396647485</ele>
      </trkpt>
      <trkpt lat="44.458015" lon="2.435557">
        <ele>471.66082931182115</ele>
      </trkpt>
      <trkpt lat="44.457928" lon="2.43562">
        <ele>471.1795015213554</ele>
      </trkpt>
      <trkpt lat="44.457843" lon="2.435659">
        <ele>470.32884529450433</ele>
      </trkpt>
      <trkpt lat="44.457708" lon="2.435682">
        <ele>469.5470193321823</ele>
      </trkpt>
      <trkpt lat="44.457588" lon="2.43569">
        <ele>469.155370707098</ele>
      </trkpt>
      <trkpt lat="44.457439" lon="2.435737">
        <ele>468.4892370489895</ele>
      </trkpt>
      <trkpt lat="44.457346" lon="2.435801">
        <ele>467.6664684573588</ele>
      </trkpt>
      <trkpt lat="44.457248" lon="2.435892">
        <ele>466.6632248142747</ele>
      </trkpt>
      <trkpt lat="44.457165" lon="2.436004">
        <ele>465.4733480015178</ele>
      </trkpt>
      <trkpt lat="44.457095" lon="2.436137">
        <ele>464.40255027187044</ele>
      </trkpt>
      <trkpt lat="44.457081" lon="2.436233">
        <ele>463.5286783858348</ele>
      </trkpt>
      <trkpt lat="44.45708" lon="2.436369">
        <ele>462.62270105811854</ele>
      </trkpt>
      <trkpt lat="44.457095" lon="2.436551">
        <ele>461.32454265015315</ele>
      </trkpt>
      <trkpt lat="44.45714" lon="2.436777">
        <ele>461.06726831320844</ele>
      </trkpt>
      <trkpt lat="44.457216" lon="2.437">
        <ele>460.43933780832157</ele>
      </trkpt>
      <trkpt lat="44.457338" lon="2.437261">
        <ele>458.92314405651496</ele>
      </trkpt>
      <trkpt lat="44.457365" lon="2.437318">
        <ele>458.57179410516756</ele>
      </trkpt>
      <trkpt lat="44.457412" lon="2.437432">
        <ele>458.06826588581316</ele>
      </trkpt>
      <trkpt lat="44.457435" lon="2.437531">
        <ele>458.0493136485718</ele>
      </trkpt>
      <trkpt lat="44.457436" lon="2.437674">
        <ele>458.790392136063</ele>
      </trkpt>
      <trkpt lat="44.457427" lon="2.437764">
        <ele>459.42634243690514</ele>
      </trkpt>
      <trkpt lat="44.457455" lon="2.437961">
        <ele>459.6315154411345</ele>
      </trkpt>
      <trkpt lat="44.457507" lon="2.438039">
        <ele>458.5096701287747</ele>
      </trkpt>
      <trkpt lat="44.457517" lon="2.438078">
        <ele>458.3348615705754</ele>
      </trkpt>
      <trkpt lat="44.457497" lon="2.438287">
        <ele>458.56882830416384</ele>
      </trkpt>
      <trkpt lat="44.457494" lon="2.438392">
        <ele>458.12506272774294</ele>
      </trkpt>
      <trkpt lat="44.457566" lon="2.438649">
        <ele>453.41414154559993</ele>
      </trkpt>
      <trkpt lat="44.457574" lon="2.438704">
        <ele>452.29573278191805</ele>
      </trkpt>
      <trkpt lat="44.457566" lon="2.438762">
        <ele>451.74235215841276</ele>
      </trkpt>
      <trkpt lat="44.457551" lon="2.438813">
        <ele>451.6306373724722</ele>
      </trkpt>
      <trkpt lat="44.457517" lon="2.438896">
        <ele>452.0953578889701</ele>
      </trkpt>
      <trkpt lat="44.457491" lon="2.439104">
        <ele>452.02237809456085</ele>
      </trkpt>
      <trkpt lat="44.457493" lon="2.43915">
        <ele>451.81530354505253</ele>
      </trkpt>
      <trkpt lat="44.457511" lon="2.439199">
        <ele>451.37900791348966</ele>
      </trkpt>
      <trkpt lat="44.457515" lon="2.439302">
        <ele>451.80728765571195</ele>
      </trkpt>
      <trkpt lat="44.457534" lon="2.439372">
        <ele>451.8871911598681</ele>
      </trkpt>
      <trkpt lat="44.457668" lon="2.43952">
        <ele>451.3680676367708</ele>
      </trkpt>
      <trkpt lat="44.457762" lon="2.439588">
        <ele>451.5155590191985</ele>
      </trkpt>
      <trkpt lat="44.457846" lon="2.439706">
        <ele>452.75673471341565</ele>
      </trkpt>
      <trkpt lat="44.457949" lon="2.440121">
        <ele>458.6752029417555</ele>
      </trkpt>
      <trkpt lat="44.458122" lon="2.440398">
        <ele>462.32636801582674</ele>
      </trkpt>
      <trkpt lat="44.458435" lon="2.440833">
        <ele>462.1047971311498</ele>
      </trkpt>
      <trkpt lat="44.458558" lon="2.440982">
        <ele>461.5101532664048</ele>
      </trkpt>
      <trkpt lat="44.458719" lon="2.441213">
        <ele>462.0585505184064</ele>
      </trkpt>
      <trkpt lat="44.458826" lon="2.441406">
        <ele>464.694196424394</ele>
      </trkpt>
      <trkpt lat="44.458949" lon="2.441542">
        <ele>465.4291797466326</ele>
      </trkpt>
      <trkpt lat="44.459048" lon="2.441621">
        <ele>465.5932743948888</ele>
      </trkpt>
      <trkpt lat="44.45924" lon="2.441732">
        <ele>465.5082216611896</ele>
      </trkpt>
      <trkpt lat="44.45934" lon="2.441768">
        <ele>464.71334830702875</ele>
      </trkpt>
      <trkpt lat="44.459432" lon="2.441754">
        <ele>462.98486151767634</ele>
      </trkpt>
      <trkpt lat="44.459515" lon="2.441763">
        <ele>461.34716378522097</ele>
      </trkpt>
      <trkpt lat="44.459576" lon="2.441793">
        <ele>459.94146946253034</ele>
      </trkpt>
      <trkpt lat="44.459636" lon="2.441858">
        <ele>458.72110114265354</ele>
      </trkpt>
      <trkpt lat="44.459636" lon="2.441858">
        <ele>458.72110114265354</ele>
      </trkpt>
      <trkpt lat="44.459739" lon="2.442101">
        <ele>457.55791763646744</ele>
      </trkpt>
      <trkpt lat="44.459843" lon="2.442341">
        <ele>455.2791208823824</ele>
      </trkpt>
      <trkpt lat="44.460003" lon="2.44277">
        <ele>455.43682897654</ele>
      </trkpt>
      <trkpt lat="44.460068" lon="2.442872">
        <ele>455.7022597185449</ele>
      </trkpt>
      <trkpt lat="44.46012" lon="2.442917">
        <ele>455.55658982973637</ele>
      </trkpt>
      <trkpt lat="44.460168" lon="2.442944">
        <ele>455.3739523588224</ele>
      </trkpt>
      <trkpt lat="44.460364" lon="2.44298">
        <ele>453.5528333086743</ele>
      </trkpt>
      <trkpt lat="44.460405" lon="2.443">
        <ele>453.3498532879157</ele>
      </trkpt>
      <trkpt lat="44.46039" lon="2.443132">
        <ele>456.0734930854021</ele>
      </trkpt>
      <trkpt lat="44.460381" lon="2.443212">
        <ele>457.6865627564077</ele>
      </trkpt>
      <trkpt lat="44.460387" lon="2.443394">
        <ele>460.9733918702237</ele>
      </trkpt>
      <trkpt lat="44.460304" lon="2.443389">
        <ele>461.2938330636569</ele>
      </trkpt>
      <trkpt lat="44.460293" lon="2.443432">
        <ele>462.0254537964716</ele>
      </trkpt>
      <trkpt lat="44.460275" lon="2.443671">
        <ele>465.9132884693024</ele>
      </trkpt>
      <trkpt lat="44.460349" lon="2.443703">
        <ele>466.4566376475385</ele>
      </trkpt>
      <trkpt lat="44.460418" lon="2.443718">
        <ele>466.6459986330276</ele>
      </trkpt>
      <trkpt lat="44.460456" lon="2.443747">
        <ele>466.91425140815267</ele>
      </trkpt>
      <trkpt lat="44.460652" lon="2.443929">
        <ele>469.2877342997251</ele>
      </trkpt>
      <trkpt lat="44.460711" lon="2.444002">
        <ele>471.0455820980054</ele>
      </trkpt>
      <trkpt lat="44.460808" lon="2.444095">
        <ele>473.3076733121658</ele>
      </trkpt>
      <trkpt lat="44.460982" lon="2.444177">
        <ele>474.7730636241852</ele>
      </trkpt>
      <trkpt lat="44.461301" lon="2.444344">
        <ele>476.25330208246623</ele>
      </trkpt>
      <trkpt lat="44.461519" lon="2.444439">
        <ele>475.8668170501372</ele>
      </trkpt>
      <trkpt lat="44.461705" lon="2.444539">
        <ele>476.85951372732274</ele>
      </trkpt>
      <trkpt lat="44.461967" lon="2.444619">
        <ele>478.00968452342886</ele>
      </trkpt>
      <trkpt lat="44.462111" lon="2.444683">
        <ele>478.65405706874685</ele>
      </trkpt>
      <trkpt lat="44.462201" lon="2.444757">
        <ele>479.45751287333877</ele>
      </trkpt>
      <trkpt lat="44.462612" lon="2.44518">
        <ele>484.71337634202985</ele>
      </trkpt>
      <trkpt lat="44.462729" lon="2.445358">
        <ele>486.21915564057485</ele>
      </trkpt>
      <trkpt lat="44.462729" lon="2.445358">
        <ele>486.21915564057485</ele>
      </trkpt>
      <trkpt lat="44.463023" lon="2.446114">
        <ele>492.36145359434676</ele>
      </trkpt>
      <trkpt lat="44.463099" lon="2.446387">
        <ele>494.67287965389045</ele>
      </trkpt>
      <trkpt lat="44.463134" lon="2.446678">
        <ele>497.1317315026196</ele>
      </trkpt>
      <trkpt lat="44.463138" lon="2.446813">
        <ele>497.36447691847593</ele>
      </trkpt>
      <trkpt lat="44.463106" lon="2.447301">
        <ele>496.47189112093196</ele>
      </trkpt>
      <trkpt lat="44.463108" lon="2.447465">
        <ele>495.3391738053087</ele>
      </trkpt>
      <trkpt lat="44.463128" lon="2.447834">
        <ele>493.8270208748176</ele>
      </trkpt>
      <trkpt lat="44.463184" lon="2.448316">
        <ele>494.5681517463226</ele>
      </trkpt>
      <trkpt lat="44.463237" lon="2.448655">
        <ele>493.0468339914389</ele>
      </trkpt>
      <trkpt lat="44.463308" lon="2.449355">
        <ele>491.8233322732268</ele>
      </trkpt>
      <trkpt lat="44.46332" lon="2.449526">
        <ele>491.8697240005068</ele>
      </trkpt>
      <trkpt lat="44.46332" lon="2.449861">
        <ele>490.8849432103063</ele>
      </trkpt>
      <trkpt lat="44.463296" lon="2.45043">
        <ele>492.01240011737764</ele>
      </trkpt>
      <trkpt lat="44.463306" lon="2.450575">
        <ele>492.1641290588773</ele>
      </trkpt>
      <trkpt lat="44.46328" lon="2.45058">
        <ele>492.4787127422639</ele>
      </trkpt>
      <trkpt lat="44.46326" lon="2.45063">
        <ele>492.8820194856033</ele>
      </trkpt>
      <trkpt lat="44.46326" lon="2.45068">
        <ele>493.05678215234127</ele>
      </trkpt>
      <trkpt lat="44.46246" lon="2.45078">
        <ele>493.8966664430693</ele>
      </trkpt>
      <trkpt lat="44.46223" lon="2.45084">
        <ele>492.2590441843501</ele>
      </trkpt>
      <trkpt lat="44.46186" lon="2.45098">
        <ele>490.92850055039673</ele>
      </trkpt>
      <trkpt lat="44.46126" lon="2.45116">
        <ele>492.1516903764</ele>
      </trkpt>
      <trkpt lat="44.46118" lon="2.45118">
        <ele>492.6038568032104</ele>
      </trkpt>
      <trkpt lat="44.46114" lon="2.45118">
        <ele>492.8594950869684</ele>
      </trkpt>
      <trkpt lat="44.46112" lon="2.45116">
        <ele>493.01338860406577</ele>
      </trkpt>
      <trkpt lat="44.46109" lon="2.45111">
        <ele>493.0795483989877</ele>
      </trkpt>
      <trkpt lat="44.46103" lon="2.45064">
        <ele>493</ele>
      </trkpt>
      <trkpt lat="44.46102" lon="2.45056">
        <ele>492.90933617777324</ele>
      </trkpt>
      <trkpt lat="44.46098" lon="2.45048">
        <ele>492.90000000000146</ele>
      </trkpt>
      <trkpt lat="44.46074" lon="2.45026">
        <ele>493</ele>
      </trkpt>
      <trkpt lat="44.46052" lon="2.45">
        <ele>493.6293333333922</ele>
      </trkpt>
      <trkpt lat="44.46026" lon="2.44951">
        <ele>494.3420074666395</ele>
      </trkpt>
      <trkpt lat="44.46016" lon="2.44941">
        <ele>494.56343750904057</ele>
      </trkpt>
      <trkpt lat="44.45988" lon="2.44924">
        <ele>493.8069116373736</ele>
      </trkpt>
      <trkpt lat="44.45939" lon="2.44893">
        <ele>492.2643485340805</ele>
      </trkpt>
      <trkpt lat="44.459387" lon="2.448935">
        <ele>492.2409288495901</ele>
      </trkpt>
      <trkpt lat="44.459385" lon="2.448934">
        <ele>492.24078157406274</ele>
      </trkpt>
      <trkpt lat="44.457859" lon="2.448061">
        <ele>498.7056752309575</ele>
      </trkpt>
      <trkpt lat="44.457516" lon="2.447911">
        <ele>499.09592874213206</ele>
      </trkpt>
      <trkpt lat="44.457125" lon="2.447754">
        <ele>499.7818675157391</ele>
      </trkpt>
      <trkpt lat="44.456619" lon="2.447441">
        <ele>499.28967143278675</ele>
      </trkpt>
      <trkpt lat="44.456055" lon="2.447048">
        <ele>495.6554631266749</ele>
      </trkpt>
      <trkpt lat="44.455617" lon="2.446712">
        <ele>495.67402631645166</ele>
      </trkpt>
      <trkpt lat="44.455464" lon="2.446633">
        <ele>496.6492007373376</ele>
      </trkpt>
      <trkpt lat="44.454957" lon="2.446427">
        <ele>498.2691307701671</ele>
      </trkpt>
      <trkpt lat="44.454841" lon="2.446401">
        <ele>498.07681579808775</ele>
      </trkpt>
      <trkpt lat="44.454841" lon="2.446401">
        <ele>498.07681579808775</ele>
      </trkpt>
      <trkpt lat="44.454777" lon="2.446327">
        <ele>497.9316414644014</ele>
      </trkpt>
      <trkpt lat="44.454567" lon="2.446639">
        <ele>497.1597034583855</ele>
      </trkpt>
      <trkpt lat="44.454464" lon="2.446845">
        <ele>496.4837640193764</ele>
      </trkpt>
      <trkpt lat="44.454327" lon="2.447182">
        <ele>495.4285367251383</ele>
      </trkpt>
      <trkpt lat="44.454153" lon="2.447573">
        <ele>494.6573597986728</ele>
      </trkpt>
      <trkpt lat="44.45347" lon="2.448901">
        <ele>491.1089938181223</ele>
      </trkpt>
      <trkpt lat="44.453332" lon="2.449228">
        <ele>490.6571395941084</ele>
      </trkpt>
      <trkpt lat="44.453198" lon="2.449466">
        <ele>489.13822440728654</ele>
      </trkpt>
      <trkpt lat="44.453088" lon="2.449715">
        <ele>487.166796581204</ele>
      </trkpt>
      <trkpt lat="44.453" lon="2.44995">
        <ele>485.5077197239523</ele>
      </trkpt>
      <trkpt lat="44.452892" lon="2.450289">
        <ele>483.2428733232672</ele>
      </trkpt>
      <trkpt lat="44.452814" lon="2.450562">
        <ele>482.0132425761659</ele>
      </trkpt>
      <trkpt lat="44.452581" lon="2.451186">
        <ele>480.7595770247288</ele>
      </trkpt>
      <trkpt lat="44.452507" lon="2.451418">
        <ele>480.2820427377718</ele>
      </trkpt>
      <trkpt lat="44.452491" lon="2.451488">
        <ele>480.1189309155573</ele>
      </trkpt>
      <trkpt lat="44.452491" lon="2.451488">
        <ele>480.1189309155573</ele>
      </trkpt>
      <trkpt lat="44.452418" lon="2.451814">
        <ele>477.4811463960366</ele>
      </trkpt>
      <trkpt lat="44.452379" lon="2.451907">
        <ele>476.5305719818464</ele>
      </trkpt>
      <trkpt lat="44.452449" lon="2.452011">
        <ele>474.9353443365228</ele>
      </trkpt>
      <trkpt lat="44.45254" lon="2.452121">
        <ele>473.2518919072743</ele>
      </trkpt>
      <trkpt lat="44.452677" lon="2.452342">
        <ele>470.8958478870024</ele>
      </trkpt>
      <trkpt lat="44.452788" lon="2.452563">
        <ele>469.6308427093686</ele>
      </trkpt>
      <trkpt lat="44.452929" lon="2.452792">
        <ele>469.40251051502673</ele>
      </trkpt>
      <trkpt lat="44.452944" lon="2.452889">
        <ele>469.134566345884</ele>
      </trkpt>
      <trkpt lat="44.452992" lon="2.452981">
        <ele>469.5602171470553</ele>
      </trkpt>
      <trkpt lat="44.453009" lon="2.453061">
        <ele>469.64994583048923</ele>
      </trkpt>
      <trkpt lat="44.453018" lon="2.453252">
        <ele>469.6860336031537</ele>
      </trkpt>
      <trkpt lat="44.453004" lon="2.453526">
        <ele>469.79321111803915</ele>
      </trkpt>
      <trkpt lat="44.452978" lon="2.453809">
        <ele>470.2086055820352</ele>
      </trkpt>
      <trkpt lat="44.452937" lon="2.454093">
        <ele>470.78846209375</ele>
      </trkpt>
      <trkpt lat="44.45286" lon="2.454402">
        <ele>472.0537835288802</ele>
      </trkpt>
      <trkpt lat="44.452775" lon="2.454684">
        <ele>472.6629281098027</ele>
      </trkpt>
      <trkpt lat="44.452735" lon="2.454838">
        <ele>472.64455536726877</ele>
      </trkpt>
      <trkpt lat="44.45273" lon="2.454959">
        <ele>472.88306470001</ele>
      </trkpt>
      <trkpt lat="44.452751" lon="2.455092">
        <ele>473.3981924307734</ele>
      </trkpt>
      <trkpt lat="44.452735" lon="2.455153">
        <ele>473.53304187874335</ele>
      </trkpt>
      <trkpt lat="44.452717" lon="2.45522">
        <ele>473.716338160584</ele>
      </trkpt>
      <trkpt lat="44.45268" lon="2.455424">
        <ele>474.77342306063576</ele>
      </trkpt>
      <trkpt lat="44.452638" lon="2.455809">
        <ele>477.2739955247855</ele>
      </trkpt>
      <trkpt lat="44.452521" lon="2.45628">
        <ele>478.26809600005066</ele>
      </trkpt>
      <trkpt lat="44.452506" lon="2.456412">
        <ele>478.95325689772056</ele>
      </trkpt>
      <trkpt lat="44.452549" lon="2.45668">
        <ele>480.7262982048268</ele>
      </trkpt>
      <trkpt lat="44.452404" lon="2.456944">
        <ele>481.5343465773865</ele>
      </trkpt>
      <trkpt lat="44.452404" lon="2.456944">
        <ele>481.5343465773865</ele>
      </trkpt>
      <trkpt lat="44.452371" lon="2.457005">
        <ele>481.67539054402215</ele>
      </trkpt>
      <trkpt lat="44.452287" lon="2.457286">
        <ele>481.90000000000146</ele>
      </trkpt>
      <trkpt lat="44.452107" lon="2.457618">
        <ele>481.1132193950608</ele>
      </trkpt>
      <trkpt lat="44.452161" lon="2.457709">
        <ele>481.00493396530516</ele>
      </trkpt>
      <trkpt lat="44.452275" lon="2.457863">
        <ele>479.7416830209233</ele>
      </trkpt>
      <trkpt lat="44.452376" lon="2.457976">
        <ele>477.96581638013083</ele>
      </trkpt>
      <trkpt lat="44.452688" lon="2.458368">
        <ele>474.23751087251674</ele>
      </trkpt>
      <trkpt lat="44.453188" lon="2.458964">
        <ele>475.91889165146296</ele>
      </trkpt>
      <trkpt lat="44.453626" lon="2.459503">
        <ele>478.24153262989216</ele>
      </trkpt>
      <trkpt lat="44.453648" lon="2.45954">
        <ele>478.2026088513908</ele>
      </trkpt>
      <trkpt lat="44.453647" lon="2.459539">
        <ele>478.2063403330519</ele>
      </trkpt>
      <trkpt lat="44.454031" lon="2.460166">
        <ele>472.1539003564663</ele>
      </trkpt>
      <trkpt lat="44.454168" lon="2.460442">
        <ele>470.3391873415102</ele>
      </trkpt>
      <trkpt lat="44.454232" lon="2.460541">
        <ele>469.7478667954642</ele>
      </trkpt>
      <trkpt lat="44.454938" lon="2.461123">
        <ele>466.16085488416775</ele>
      </trkpt>
      <trkpt lat="44.455138" lon="2.461308">
        <ele>466.8825677983076</ele>
      </trkpt>
      <trkpt lat="44.455187" lon="2.461345">
        <ele>466.79903295711836</ele>
      </trkpt>
      <trkpt lat="44.455224" lon="2.461397">
        <ele>466.60012232043744</ele>
      </trkpt>
      <trkpt lat="44.455256" lon="2.461512">
        <ele>466.0966620796835</ele>
      </trkpt>
      <trkpt lat="44.455307" lon="2.461945">
        <ele>463.2574985509749</ele>
      </trkpt>
      <trkpt lat="44.455308" lon="2.461945">
        <ele>466.62</ele>
      </trkpt>
      <trkpt lat="44.455315" lon="2.462004">
        <ele>466.56</ele>
      </trkpt>
      <trkpt lat="44.455375" lon="2.462106">
        <ele>466.37</ele>
      </trkpt>
      <trkpt lat="44.455466" lon="2.462204">
        <ele>466.03</ele>
      </trkpt>
      <trkpt lat="44.455507" lon="2.462227">
        <ele>465.92</ele>
      </trkpt>
      <trkpt lat="44.455622" lon="2.462292">
        <ele>465.63</ele>
      </trkpt>
      <trkpt lat="44.455803" lon="2.462348">
        <ele>464.67</ele>
      </trkpt>
      <trkpt lat="44.45580321202681" lon="2.462347802828873">
        <ele>461.26600764566194</ele>
      </trkpt>
      <trkpt lat="44.45580321202681" lon="2.462347802828873">
        <ele>461.26600764566194</ele>
      </trkpt>
      <trkpt lat="44.455768346748386" lon="2.4625551931133316">
        <ele>462.0888365456328</ele>
      </trkpt>
      <trkpt lat="44.455768346748386" lon="2.4625551931133316">
        <ele>462.0888365456328</ele>
      </trkpt>
      <trkpt lat="44.455698892644875" lon="2.4627025480367593">
        <ele>462.4858655550522</ele>
      </trkpt>
      <trkpt lat="44.455616" lon="2.462899">
        <ele>462.32937372448015</ele>
      </trkpt>
      <trkpt lat="44.455616" lon="2.462899">
        <ele>464.08</ele>
      </trkpt>
      <trkpt lat="44.455603" lon="2.463124">
        <ele>463.23</ele>
      </trkpt>
      <trkpt lat="44.455531" lon="2.463283">
        <ele>462.69</ele>
      </trkpt>
      <trkpt lat="44.45544" lon="2.463736">
        <ele>461.12</ele>
      </trkpt>
      <trkpt lat="44.454994" lon="2.464328">
        <ele>460.38</ele>
      </trkpt>
      <trkpt lat="44.454773" lon="2.464567">
        <ele>460.52</ele>
      </trkpt>
      <trkpt lat="44.45463" lon="2.464693">
        <ele>460.59</ele>
      </trkpt>
      <trkpt lat="44.454477" lon="2.465127">
        <ele>459.58</ele>
      </trkpt>
      <trkpt lat="44.454317" lon="2.465285">
        <ele>459.58</ele>
      </trkpt>
      <trkpt lat="44.454121" lon="2.465348">
        <ele>460.06</ele>
      </trkpt>
      <trkpt lat="44.454078" lon="2.465591">
        <ele>458.91</ele>
      </trkpt>
      <trkpt lat="44.453931" lon="2.465771">
        <ele>457.64</ele>
      </trkpt>
      <trkpt lat="44.453687" lon="2.466098">
        <ele>455.71</ele>
      </trkpt>
      <trkpt lat="44.453584" lon="2.466181">
        <ele>455.29</ele>
      </trkpt>
      <trkpt lat="44.453285" lon="2.466464">
        <ele>453.01</ele>
      </trkpt>
      <trkpt lat="44.453066" lon="2.466651">
        <ele>450.65</ele>
      </trkpt>
      <trkpt lat="44.452938" lon="2.466665">
        <ele>449.81</ele>
      </trkpt>
      <trkpt lat="44.452763" lon="2.466691">
        <ele>448.56</ele>
      </trkpt>
      <trkpt lat="44.452406" lon="2.466669">
        <ele>446.42</ele>
      </trkpt>
      <trkpt lat="44.452406" lon="2.466668">
        <ele>446.72977934694023</ele>
      </trkpt>
      <trkpt lat="44.452404" lon="2.466668">
        <ele>446.7257484622845</ele>
      </trkpt>
      <trkpt lat="44.452374" lon="2.466667">
        <ele>446.67627983340094</ele>
      </trkpt>
      <trkpt lat="44.452125" lon="2.466638">
        <ele>445.61657261578443</ele>
      </trkpt>
      <trkpt lat="44.451814" lon="2.466543">
        <ele>442.4218328481435</ele>
      </trkpt>
      <trkpt lat="44.451753" lon="2.466522">
        <ele>441.6344773793737</ele>
      </trkpt>
      <trkpt lat="44.451647" lon="2.466467">
        <ele>440.84546856786176</ele>
      </trkpt>
      <trkpt lat="44.451571" lon="2.466386">
        <ele>441.24916575993484</ele>
      </trkpt>
      <trkpt lat="44.451505" lon="2.466337">
        <ele>441.4416974740109</ele>
      </trkpt>
      <trkpt lat="44.451372" lon="2.466073">
        <ele>445.63230465296965</ele>
      </trkpt>
      <trkpt lat="44.451121" lon="2.465741">
        <ele>447.2319560198812</ele>
      </trkpt>
      <trkpt lat="44.451049" lon="2.465688">
        <ele>446.47306593653775</ele>
      </trkpt>
      <trkpt lat="44.450755" lon="2.465626">
        <ele>443.0188147011455</ele>
      </trkpt>
      <trkpt lat="44.450693" lon="2.465582">
        <ele>443.38693842724945</ele>
      </trkpt>
      <trkpt lat="44.450603" lon="2.465453">
        <ele>444.1414923309691</ele>
      </trkpt>
      <trkpt lat="44.450418" lon="2.465165">
        <ele>442.94763194675795</ele>
      </trkpt>
      <trkpt lat="44.450316" lon="2.464981">
        <ele>443.46624587346037</ele>
      </trkpt>
      <trkpt lat="44.450271" lon="2.464856">
        <ele>444.40210945867057</ele>
      </trkpt>
      <trkpt lat="44.45009" lon="2.465002">
        <ele>439.7332851826217</ele>
      </trkpt>
      <trkpt lat="44.450007" lon="2.465">
        <ele>438.28706215638783</ele>
      </trkpt>
      <trkpt lat="44.449953" lon="2.464939">
        <ele>438.1473910335924</ele>
      </trkpt>
      <trkpt lat="44.449867" lon="2.464756">
        <ele>438.31407452797976</ele>
      </trkpt>
      <trkpt lat="44.449811" lon="2.464667">
        <ele>437.996009626845</ele>
      </trkpt>
      <trkpt lat="44.449742" lon="2.46458">
        <ele>437.0645395067056</ele>
      </trkpt>
      <trkpt lat="44.449682" lon="2.464413">
        <ele>435.2513878086591</ele>
      </trkpt>
      <trkpt lat="44.449673" lon="2.464241">
        <ele>435.0464539365382</ele>
      </trkpt>
      <trkpt lat="44.44968" lon="2.463957">
        <ele>435.6345821201877</ele>
      </trkpt>
      <trkpt lat="44.449669" lon="2.463846">
        <ele>435.20204941919144</ele>
      </trkpt>
      <trkpt lat="44.449666" lon="2.463746">
        <ele>435.27525527047345</ele>
      </trkpt>
      <trkpt lat="44.449688" lon="2.463477">
        <ele>437.1996198977376</ele>
      </trkpt>
      <trkpt lat="44.449696" lon="2.463325">
        <ele>437.8959540135704</ele>
      </trkpt>
      <trkpt lat="44.449693" lon="2.463155">
        <ele>437.44542016787506</ele>
      </trkpt>
      <trkpt lat="44.449676" lon="2.463027">
        <ele>435.9319283171543</ele>
      </trkpt>
      <trkpt lat="44.449669" lon="2.462866">
        <ele>434.7271716166713</ele>
      </trkpt>
      <trkpt lat="44.449644" lon="2.462808">
        <ele>432.9885323201306</ele>
      </trkpt>
      <trkpt lat="44.449607" lon="2.462818">
        <ele>430.9936345744881</ele>
      </trkpt>
      <trkpt lat="44.44954" lon="2.46288">
        <ele>427.49203426891484</ele>
      </trkpt>
      <trkpt lat="44.44946" lon="2.46297">
        <ele>423.12460035967763</ele>
      </trkpt>
      <trkpt lat="44.449397" lon="2.463054">
        <ele>419.71570069972006</ele>
      </trkpt>
      <trkpt lat="44.449328" lon="2.463218">
        <ele>416.70381531961385</ele>
      </trkpt>
      <trkpt lat="44.449282" lon="2.463376">
        <ele>414.3056937803851</ele>
      </trkpt>
      <trkpt lat="44.449211" lon="2.463796">
        <ele>409.9922370571653</ele>
      </trkpt>
      <trkpt lat="44.449152" lon="2.464002">
        <ele>406.009209167912</ele>
      </trkpt>
      <trkpt lat="44.449101" lon="2.464158">
        <ele>402.30276761275917</ele>
      </trkpt>
      <trkpt lat="44.448947" lon="2.464553">
        <ele>390.85877757590384</ele>
      </trkpt>
      <trkpt lat="44.448906" lon="2.464683">
        <ele>388.52976051615997</ele>
      </trkpt>
      <trkpt lat="44.448852" lon="2.464985">
        <ele>386.2593405129216</ele>
      </trkpt>
      <trkpt lat="44.448845" lon="2.4651">
        <ele>386.90464261914695</ele>
      </trkpt>
      <trkpt lat="44.448849" lon="2.465209">
        <ele>387.6182581282016</ele>
      </trkpt>
      <trkpt lat="44.448841" lon="2.465336">
        <ele>385.9386194183401</ele>
      </trkpt>
      <trkpt lat="44.44882" lon="2.46547">
        <ele>383.2141539063781</ele>
      </trkpt>
      <trkpt lat="44.448804" lon="2.465643">
        <ele>378.686035228568</ele>
      </trkpt>
      <trkpt lat="44.448791" lon="2.466254">
        <ele>362.99649206920753</ele>
      </trkpt>
      <trkpt lat="44.448817" lon="2.466471">
        <ele>358.9140759074687</ele>
      </trkpt>
      <trkpt lat="44.448897" lon="2.466818">
        <ele>353.61688595090874</ele>
      </trkpt>
      <trkpt lat="44.448925" lon="2.466924">
        <ele>352.022965825752</ele>
      </trkpt>
      <trkpt lat="44.448926" lon="2.466923">
        <ele>339.43</ele>
      </trkpt>
      <trkpt lat="44.448936" lon="2.466961">
        <ele>339.15</ele>
      </trkpt>
      <trkpt lat="44.448989" lon="2.467069">
        <ele>338.58</ele>
      </trkpt>
      <trkpt lat="44.44908" lon="2.467128">
        <ele>339.59</ele>
      </trkpt>
      <trkpt lat="44.449203" lon="2.467162">
        <ele>343.8</ele>
      </trkpt>
      <trkpt lat="44.449295" lon="2.467154">
        <ele>347.42</ele>
      </trkpt>
      <trkpt lat="44.449717" lon="2.467121">
        <ele>364.2</ele>
      </trkpt>
      <trkpt lat="44.449818" lon="2.467126">
        <ele>367.93</ele>
      </trkpt>
      <trkpt lat="44.449982" lon="2.467268">
        <ele>368.51</ele>
      </trkpt>
      <trkpt lat="44.450069" lon="2.467384">
        <ele>366.71</ele>
      </trkpt>
      <trkpt lat="44.450069" lon="2.467384">
        <ele>361.28697811877345</ele>
      </trkpt>
      <trkpt lat="44.450075" lon="2.467392">
        <ele>361.213753064599</ele>
      </trkpt>
      <trkpt lat="44.450127" lon="2.467517">
        <ele>359.62286220921004</ele>
      </trkpt>
      <trkpt lat="44.450153" lon="2.467663">
        <ele>357.79591977195946</ele>
      </trkpt>
      <trkpt lat="44.450167" lon="2.467841">
        <ele>354.75682410168554</ele>
      </trkpt>
      <trkpt lat="44.450189" lon="2.468007">
        <ele>351.59186660344824</ele>
      </trkpt>
      <trkpt lat="44.450225" lon="2.468143">
        <ele>349.9781780391237</ele>
      </trkpt>
      <trkpt lat="44.450344" lon="2.468237">
        <ele>354.29692079695064</ele>
      </trkpt>
      <trkpt lat="44.450412" lon="2.468381">
        <ele>354.64275307823027</ele>
      </trkpt>
      <trkpt lat="44.4505" lon="2.468513">
        <ele>356.2387230258925</ele>
      </trkpt>
      <trkpt lat="44.450565" lon="2.468655">
        <ele>355.14318648177294</ele>
      </trkpt>
      <trkpt lat="44.450599" lon="2.468789">
        <ele>352.4236287136323</ele>
      </trkpt>
      <trkpt lat="44.450611" lon="2.468904">
        <ele>349.47509283274513</ele>
      </trkpt>
      <trkpt lat="44.450637" lon="2.468994">
        <ele>348.02564555560315</ele>
      </trkpt>
      <trkpt lat="44.450693" lon="2.469081">
        <ele>347.85358343470205</ele>
      </trkpt>
      <trkpt lat="44.450782" lon="2.469172">
        <ele>348.73456553578626</ele>
      </trkpt>
      <trkpt lat="44.450784" lon="2.469221">
        <ele>347.3116796013396</ele>
      </trkpt>
      <trkpt lat="44.450746" lon="2.469252">
        <ele>344.68578031249416</ele>
      </trkpt>
      <trkpt lat="44.450641" lon="2.469199">
        <ele>341.64119209046595</ele>
      </trkpt>
      <trkpt lat="44.450555" lon="2.469141">
        <ele>339.343051271327</ele>
      </trkpt>
      <trkpt lat="44.45045" lon="2.468995">
        <ele>338.29495607565866</ele>
      </trkpt>
      <trkpt lat="44.450343" lon="2.468877">
        <ele>335.96853245948455</ele>
      </trkpt>
      <trkpt lat="44.45019" lon="2.468754">
        <ele>331.02091764741016</ele>
      </trkpt>
      <trkpt lat="44.450061" lon="2.468587">
        <ele>330.0684723591205</ele>
      </trkpt>
      <trkpt lat="44.449964" lon="2.468432">
        <ele>330.2023108826805</ele>
      </trkpt>
      <trkpt lat="44.449879" lon="2.468322">
        <ele>331.3448085544644</ele>
      </trkpt>
      <trkpt lat="44.449798" lon="2.468265">
        <ele>331.15194848165913</ele>
      </trkpt>
      <trkpt lat="44.449723" lon="2.468379">
        <ele>325.5078102202633</ele>
      </trkpt>
      <trkpt lat="44.44964" lon="2.468413">
        <ele>322.9959753035103</ele>
      </trkpt>
      <trkpt lat="44.449609" lon="2.468437">
        <ele>321.8710838652591</ele>
      </trkpt>
      <trkpt lat="44.449619" lon="2.468467">
        <ele>321.242709403004</ele>
      </trkpt>
      <trkpt lat="44.449661" lon="2.468496">
        <ele>321.12121363404395</ele>
      </trkpt>
      <trkpt lat="44.449693" lon="2.468543">
        <ele>320.5103242160464</ele>
      </trkpt>
      <trkpt lat="44.449762" lon="2.468676">
        <ele>318.6469318740076</ele>
      </trkpt>
      <trkpt lat="44.449815" lon="2.46883">
        <ele>316.93006152084814</ele>
      </trkpt>
      <trkpt lat="44.449829" lon="2.468924">
        <ele>316.13027314404786</ele>
      </trkpt>
      <trkpt lat="44.449821" lon="2.469011">
        <ele>314.9840503032508</ele>
      </trkpt>
      <trkpt lat="44.449711" lon="2.469219">
        <ele>312.58804619545265</ele>
      </trkpt>
      <trkpt lat="44.449465" lon="2.46942">
        <ele>310.9538561814467</ele>
      </trkpt>
      <trkpt lat="44.44942" lon="2.469469">
        <ele>310.56773003155405</ele>
      </trkpt>
      <trkpt lat="44.449381" lon="2.469512">
        <ele>310.3226524376779</ele>
      </trkpt>
      <trkpt lat="44.449226" lon="2.469691">
        <ele>309.91300704505267</ele>
      </trkpt>
      <trkpt lat="44.448975" lon="2.469906">
        <ele>312.71183158351437</ele>
      </trkpt>
      <trkpt lat="44.448975" lon="2.469906">
        <ele>312.71183158351437</ele>
      </trkpt>
      <trkpt lat="44.448975" lon="2.469906">
        <ele>312.71183158351437</ele>
      </trkpt>
      <trkpt lat="44.448922" lon="2.46982">
        <ele>311.7799724063826</ele>
      </trkpt>
      <trkpt lat="44.448832" lon="2.469671">
        <ele>310.84328350516927</ele>
      </trkpt>
      <trkpt lat="44.44871" lon="2.469499">
        <ele>311.4286708908653</ele>
      </trkpt>
      <trkpt lat="44.448383" lon="2.469221">
        <ele>315.6531737617224</ele>
      </trkpt>
      <trkpt lat="44.448212" lon="2.468947">
        <ele>318.0401327471251</ele>
      </trkpt>
      <trkpt lat="44.447983" lon="2.468556">
        <ele>323.59050065510206</ele>
      </trkpt>
      <trkpt lat="44.447877" lon="2.468332">
        <ele>325.0144047906043</ele>
      </trkpt>
      <trkpt lat="44.447795" lon="2.46812">
        <ele>325.1303888866263</ele>
      </trkpt>
      <trkpt lat="44.447566" lon="2.467592">
        <ele>325.1992013078198</ele>
      </trkpt>
      <trkpt lat="44.447469" lon="2.467256">
        <ele>325.3313614581908</ele>
      </trkpt>
      <trkpt lat="44.447405" lon="2.466997">
        <ele>325.47541093941766</ele>
      </trkpt>
      <trkpt lat="44.447265" lon="2.466589">
        <ele>327.2160761728558</ele>
      </trkpt>
      <trkpt lat="44.447079" lon="2.465763">
        <ele>332.5064691116052</ele>
      </trkpt>
      <trkpt lat="44.446994" lon="2.46507">
        <ele>332.8980850070724</ele>
      </trkpt>
      <trkpt lat="44.447006" lon="2.463269">
        <ele>338.07895371085124</ele>
      </trkpt>
      <trkpt lat="44.446989" lon="2.462972">
        <ele>339.67126030872845</ele>
      </trkpt>
      <trkpt lat="44.446978" lon="2.462858">
        <ele>340.4974192172262</ele>
      </trkpt>
      <trkpt lat="44.44695" lon="2.462756">
        <ele>341.74713193280695</ele>
      </trkpt>
      <trkpt lat="44.446857" lon="2.462542">
        <ele>345.2515268890194</ele>
      </trkpt>
      <trkpt lat="44.446824" lon="2.462444">
        <ele>346.7839486076043</ele>
      </trkpt>
      <trkpt lat="44.446789" lon="2.462195">
        <ele>349.2830338830131</ele>
      </trkpt>
      <trkpt lat="44.446789" lon="2.462195">
        <ele>349.2830338830131</ele>
      </trkpt>
      <trkpt lat="44.446760671390585" lon="2.4615663883229555">
        <ele>350.9366322903582</ele>
      </trkpt>
      <trkpt lat="44.446732342781175" lon="2.460937776645911">
        <ele>351.59466139590415</ele>
      </trkpt>
      <trkpt lat="44.44670401417176" lon="2.4603091649688666">
        <ele>352.16858801464605</ele>
      </trkpt>
      <trkpt lat="44.44668820216853" lon="2.4599582967098">
        <ele>349.0660511561281</ele>
      </trkpt>
      <trkpt lat="44.446705" lon="2.459956">
        <ele>348.5072157910665</ele>
      </trkpt>
      <trkpt lat="44.446705" lon="2.459686">
        <ele>346.50801918773465</ele>
      </trkpt>
      <trkpt lat="44.446581" lon="2.458966">
        <ele>344.48619571298804</ele>
      </trkpt>
      <trkpt lat="44.44654" lon="2.458589">
        <ele>344.292321826984</ele>
      </trkpt>
      <trkpt lat="44.446535" lon="2.45845">
        <ele>345.0502988368831</ele>
      </trkpt>
      <trkpt lat="44.446594" lon="2.458399">
        <ele>345.12043523860507</ele>
      </trkpt>
      <trkpt lat="44.446656" lon="2.458387">
        <ele>344.9663903226616</ele>
      </trkpt>
      <trkpt lat="44.446951" lon="2.45846">
        <ele>342.154376038118</ele>
      </trkpt>
      <trkpt lat="44.447071" lon="2.458514">
        <ele>342.64078511592214</ele>
      </trkpt>
      <trkpt lat="44.447187" lon="2.458633">
        <ele>343.39116344196356</ele>
      </trkpt>
      <trkpt lat="44.447221" lon="2.458805">
        <ele>343.5234997159339</ele>
      </trkpt>
      <trkpt lat="44.447264" lon="2.458631">
        <ele>345.02735240399875</ele>
      </trkpt>
      <trkpt lat="44.447335" lon="2.458109">
        <ele>345.89107349798473</ele>
      </trkpt>
      <trkpt lat="44.447398" lon="2.457704">
        <ele>345.3521595028083</ele>
      </trkpt>
      <trkpt lat="44.447464" lon="2.45734">
        <ele>346.8635592117194</ele>
      </trkpt>
      <trkpt lat="44.447554" lon="2.456895">
        <ele>350.25304046203064</ele>
      </trkpt>
      <trkpt lat="44.447616" lon="2.45664">
        <ele>350.64251531786346</ele>
      </trkpt>
      <trkpt lat="44.447634" lon="2.456531">
        <ele>350.5039775251648</ele>
      </trkpt>
      <trkpt lat="44.447672" lon="2.456302">
        <ele>350.74875509408446</ele>
      </trkpt>
      <trkpt lat="44.447707" lon="2.456228">
        <ele>351.1205752264245</ele>
      </trkpt>
      <trkpt lat="44.44762" lon="2.45602">
        <ele>350.87141944125847</ele>
      </trkpt>
      <trkpt lat="44.447532" lon="2.455863">
        <ele>351.10833282410147</ele>
      </trkpt>
      <trkpt lat="44.447401" lon="2.455754">
        <ele>351.0176456532919</ele>
      </trkpt>
      <trkpt lat="44.447286" lon="2.455715">
        <ele>351.64429441846687</ele>
      </trkpt>
      <trkpt lat="44.44718" lon="2.455666">
        <ele>352.4363646183002</ele>
      </trkpt>
      <trkpt lat="44.447103" lon="2.455596">
        <ele>353.50496432805534</ele>
      </trkpt>
      <trkpt lat="44.447051" lon="2.45552">
        <ele>354.21379954889755</ele>
      </trkpt>
      <trkpt lat="44.446988" lon="2.45545">
        <ele>354.92686554291356</ele>
      </trkpt>
      <trkpt lat="44.446958" lon="2.4554">
        <ele>355.0674542362867</ele>
      </trkpt>
      <trkpt lat="44.446933" lon="2.455527">
        <ele>355.5902964498995</ele>
      </trkpt>
      <trkpt lat="44.44694" lon="2.45553">
        <ele>355.500200764046</ele>
      </trkpt>
      <trkpt lat="44.4469" lon="2.45563">
        <ele>356.13722322871456</ele>
      </trkpt>
      <trkpt lat="44.44685" lon="2.45576">
        <ele>357.0827510994403</ele>
      </trkpt>
      <trkpt lat="44.44682" lon="2.45584">
        <ele>357.7225317906576</ele>
      </trkpt>
      <trkpt lat="44.44682" lon="2.45601">
        <ele>358.3067215040801</ele>
      </trkpt>
      <trkpt lat="44.44678" lon="2.45612">
        <ele>359.48440678311135</ele>
      </trkpt>
      <trkpt lat="44.4467" lon="2.45628">
        <ele>361.98974305256456</ele>
      </trkpt>
      <trkpt lat="44.44656" lon="2.45681">
        <ele>364.5004622699662</ele>
      </trkpt>
      <trkpt lat="44.44646" lon="2.45702">
        <ele>364.9859724791724</ele>
      </trkpt>
      <trkpt lat="44.44633" lon="2.4572">
        <ele>366.0093863369791</ele>
      </trkpt>
      <trkpt lat="44.44621" lon="2.45738">
        <ele>366.33236262236096</ele>
      </trkpt>
      <trkpt lat="44.44613" lon="2.45747">
        <ele>366.1387914248846</ele>
      </trkpt>
      <trkpt lat="44.44601" lon="2.45752">
        <ele>367.03120674661614</ele>
      </trkpt>
      <trkpt lat="44.44593" lon="2.45755">
        <ele>367.7689044283909</ele>
      </trkpt>
      <trkpt lat="44.445929" lon="2.457549">
        <ele>367.8141239710325</ele>
      </trkpt>
      <trkpt lat="44.445929" lon="2.45755">
        <ele>367.7876186475679</ele>
      </trkpt>
      <trkpt lat="44.445797" lon="2.457564">
        <ele>369.851680637915</ele>
      </trkpt>
      <trkpt lat="44.445638" lon="2.457549">
        <ele>373.0937089173134</ele>
      </trkpt>
      <trkpt lat="44.445481" lon="2.457522">
        <ele>376.6239064904864</ele>
      </trkpt>
      <trkpt lat="44.445261" lon="2.45752">
        <ele>381.33240711287493</ele>
      </trkpt>
      <trkpt lat="44.445056" lon="2.457504">
        <ele>388.5032890466667</ele>
      </trkpt>
      <trkpt lat="44.444864" lon="2.457542">
        <ele>393.3714712562512</ele>
      </trkpt>
      <trkpt lat="44.444685" lon="2.457565">
        <ele>397.72450180520855</ele>
      </trkpt>
      <trkpt lat="44.44455" lon="2.457595">
        <ele>400.2172256692468</ele>
      </trkpt>
      <trkpt lat="44.44446" lon="2.457596">
        <ele>402.51837466612676</ele>
      </trkpt>
      <trkpt lat="44.44434" lon="2.457583">
        <ele>406.02566662396885</ele>
      </trkpt>
      <trkpt lat="44.444254" lon="2.457601">
        <ele>407.35538874668265</ele>
      </trkpt>
      <trkpt lat="44.444151" lon="2.457638">
        <ele>408.01911082512265</ele>
      </trkpt>
      <trkpt lat="44.443917" lon="2.457663">
        <ele>411.17911370484865</ele>
      </trkpt>
      <trkpt lat="44.443655" lon="2.457646">
        <ele>414.06699881830207</ele>
      </trkpt>
      <trkpt lat="44.443386" lon="2.457588">
        <ele>415.56935180158473</ele>
      </trkpt>
      <trkpt lat="44.442983" lon="2.457422">
        <ele>423.8624684164687</ele>
      </trkpt>
      <trkpt lat="44.442655" lon="2.457389">
        <ele>428.29916677535596</ele>
      </trkpt>
      <trkpt lat="44.442223" lon="2.457326">
        <ele>430.32313451534185</ele>
      </trkpt>
      <trkpt lat="44.44198" lon="2.457358">
        <ele>430.3041450055119</ele>
      </trkpt>
      <trkpt lat="44.441812" lon="2.457288">
        <ele>433.99929039392924</ele>
      </trkpt>
      <trkpt lat="44.441771" lon="2.457292">
        <ele>434.5721520608942</ele>
      </trkpt>
      <trkpt lat="44.441629" lon="2.457147">
        <ele>440.36388657709807</ele>
      </trkpt>
      <trkpt lat="44.441577" lon="2.457103">
        <ele>442.1168017586826</ele>
      </trkpt>
      <trkpt lat="44.441422" lon="2.457018">
        <ele>445.4651261684278</ele>
      </trkpt>
      <trkpt lat="44.441556" lon="2.456988">
        <ele>444.6931033304005</ele>
      </trkpt>
      <trkpt lat="44.441617" lon="2.456986">
        <ele>444.14255822718206</ele>
      </trkpt>
      <trkpt lat="44.441756" lon="2.457007">
        <ele>442.35261298895335</ele>
      </trkpt>
      <trkpt lat="44.441921" lon="2.456985">
        <ele>441.57690433789486</ele>
      </trkpt>
      <trkpt lat="44.442012" lon="2.45696">
        <ele>441.63200268796965</ele>
      </trkpt>
      <trkpt lat="44.442278" lon="2.456898">
        <ele>442.8419953013482</ele>
      </trkpt>
      <trkpt lat="44.442512" lon="2.456888">
        <ele>443.33617122847977</ele>
      </trkpt>
      <trkpt lat="44.442725" lon="2.45683">
        <ele>444.4870528959923</ele>
      </trkpt>
      <trkpt lat="44.443211" lon="2.456766">
        <ele>444.9362015681811</ele>
      </trkpt>
      <trkpt lat="44.443416" lon="2.456764">
        <ele>445.2448813580052</ele>
      </trkpt>
      <trkpt lat="44.443798" lon="2.456689">
        <ele>449.4298797559185</ele>
      </trkpt>
      <trkpt lat="44.4439" lon="2.456617">
        <ele>450.26639652338434</ele>
      </trkpt>
      <trkpt lat="44.443935" lon="2.456593">
        <ele>450.4493050279746</ele>
      </trkpt>
      <trkpt lat="44.444015" lon="2.456476">
        <ele>451.54261006471773</ele>
      </trkpt>
      <trkpt lat="44.44423" lon="2.456321">
        <ele>450.19314077690564</ele>
      </trkpt>
      <trkpt lat="44.444323" lon="2.456239">
        <ele>449.24083165633823</ele>
      </trkpt>
      <trkpt lat="44.444381" lon="2.456083">
        <ele>451.00164027708365</ele>
      </trkpt>
      <trkpt lat="44.444455" lon="2.455343">
        <ele>454.0734116578252</ele>
      </trkpt>
      <trkpt lat="44.4445" lon="2.455086">
        <ele>455.12447766724625</ele>
      </trkpt>
      <trkpt lat="44.444479" lon="2.454737">
        <ele>457.94363072686946</ele>
      </trkpt>
      <trkpt lat="44.444488" lon="2.454334">
        <ele>457.7837273785002</ele>
      </trkpt>
      <trkpt lat="44.444428" lon="2.454129">
        <ele>459.4520773810857</ele>
      </trkpt>
      <trkpt lat="44.444375" lon="2.453948">
        <ele>460.5551123814949</ele>
      </trkpt>
      <trkpt lat="44.444349" lon="2.453336">
        <ele>463.0041107141069</ele>
      </trkpt>
      <trkpt lat="44.44423" lon="2.452871">
        <ele>465.3221648266543</ele>
      </trkpt>
      <trkpt lat="44.444169" lon="2.452537">
        <ele>464.64153251088516</ele>
      </trkpt>
      <trkpt lat="44.444134" lon="2.452263">
        <ele>463.2910667537256</ele>
      </trkpt>
      <trkpt lat="44.444077" lon="2.452059">
        <ele>462.90188102461445</ele>
      </trkpt>
      <trkpt lat="44.444051" lon="2.452005">
        <ele>462.9924924127763</ele>
      </trkpt>
      <trkpt lat="44.444052" lon="2.452006">
        <ele>462.9835369489821</ele>
      </trkpt>
      <trkpt lat="44.444032" lon="2.451963">
        <ele>463.08164835826165</ele>
      </trkpt>
      <trkpt lat="44.443729" lon="2.452006">
        <ele>466.41819544161984</ele>
      </trkpt>
      <trkpt lat="44.443614" lon="2.452092">
        <ele>466.8441135043238</ele>
      </trkpt>
      <trkpt lat="44.443448" lon="2.452315">
        <ele>467.430250179489</ele>
      </trkpt>
      <trkpt lat="44.443354" lon="2.452404">
        <ele>467.4382957644766</ele>
      </trkpt>
      <trkpt lat="44.443265" lon="2.452449">
        <ele>467.38773358659944</ele>
      </trkpt>
      <trkpt lat="44.443072" lon="2.452462">
        <ele>467.11325056920805</ele>
      </trkpt>
      <trkpt lat="44.44288" lon="2.452459">
        <ele>466.6203795556915</ele>
      </trkpt>
      <trkpt lat="44.442842" lon="2.452684">
        <ele>465.92259796988344</ele>
      </trkpt>
      <trkpt lat="44.442725" lon="2.453182">
        <ele>464.65449647971377</ele>
      </trkpt>
      <trkpt lat="44.442702" lon="2.453274">
        <ele>464.7191459737728</ele>
      </trkpt>
      <trkpt lat="44.442703" lon="2.453324">
        <ele>464.8109204846675</ele>
      </trkpt>
      <trkpt lat="44.442673" lon="2.453335">
        <ele>464.6768669915857</ele>
      </trkpt>
      <trkpt lat="44.442581" lon="2.453367">
        <ele>464.1761854790737</ele>
      </trkpt>
      <trkpt lat="44.442458" lon="2.453324">
        <ele>463.79024941462666</ele>
      </trkpt>
      <trkpt lat="44.441949" lon="2.453017">
        <ele>464.58220682297906</ele>
      </trkpt>
      <trkpt lat="44.441713" lon="2.453667">
        <ele>462.9156263866937</ele>
      </trkpt>
      <trkpt lat="44.441689" lon="2.453732">
        <ele>462.8007313802384</ele>
      </trkpt>
      <trkpt lat="44.441614" lon="2.454005">
        <ele>462.82305208887095</ele>
      </trkpt>
      <trkpt lat="44.441518" lon="2.454358">
        <ele>462.8000000000011</ele>
      </trkpt>
      <trkpt lat="44.441413" lon="2.454639">
        <ele>462.07017774074416</ele>
      </trkpt>
      <trkpt lat="44.441284" lon="2.454848">
        <ele>461.33952856417864</ele>
      </trkpt>
      <trkpt lat="44.44106" lon="2.455244">
        <ele>460.2587936975998</ele>
      </trkpt>
      <trkpt lat="44.44087" lon="2.455494">
        <ele>458.9535102442847</ele>
      </trkpt>
      <trkpt lat="44.440736" lon="2.455657">
        <ele>458.1342134696532</ele>
      </trkpt>
      <trkpt lat="44.440736" lon="2.455657">
        <ele>458.1342134696532</ele>
      </trkpt>
      <trkpt lat="44.440536" lon="2.455903">
        <ele>457.7432661726132</ele>
      </trkpt>
      <trkpt lat="44.440418" lon="2.45607">
        <ele>458.13669834258087</ele>
      </trkpt>
      <trkpt lat="44.440366" lon="2.456197">
        <ele>458.31868836353135</ele>
      </trkpt>
      <trkpt lat="44.440307" lon="2.456407">
        <ele>458.54844274520985</ele>
      </trkpt>
      <trkpt lat="44.440248" lon="2.456649">
        <ele>458.6898983060116</ele>
      </trkpt>
      <trkpt lat="44.44025" lon="2.45665">
        <ele>458.6829913342894</ele>
      </trkpt>
      <trkpt lat="44.44009" lon="2.4568">
        <ele>458.49356746588523</ele>
      </trkpt>
      <trkpt lat="44.44" lon="2.45698">
        <ele>458.16037458982373</ele>
      </trkpt>
      <trkpt lat="44.43993" lon="2.45721">
        <ele>458</ele>
      </trkpt>
      <trkpt lat="44.43987" lon="2.4573">
        <ele>458</ele>
      </trkpt>
      <trkpt lat="44.43981" lon="2.45732">
        <ele>458</ele>
      </trkpt>
      <trkpt lat="44.439809" lon="2.457316">
        <ele>458</ele>
      </trkpt>
      <trkpt lat="44.439805" lon="2.457318">
        <ele>458</ele>
      </trkpt>
      <trkpt lat="44.439766" lon="2.45731">
        <ele>458</ele>
      </trkpt>
      <trkpt lat="44.43964" lon="2.457233">
        <ele>458</ele>
      </trkpt>
      <trkpt lat="44.439443" lon="2.457162">
        <ele>458</ele>
      </trkpt>
      <trkpt lat="44.439347" lon="2.45716">
        <ele>458.0001771640115</ele>
      </trkpt>
      <trkpt lat="44.439272" lon="2.457188">
        <ele>457.94950385363853</ele>
      </trkpt>
      <trkpt lat="44.439207" lon="2.457224">
        <ele>457.74941851767414</ele>
      </trkpt>
      <trkpt lat="44.439126" lon="2.457251">
        <ele>457.4380440477275</ele>
      </trkpt>
      <trkpt lat="44.438996" lon="2.457264">
        <ele>457.1242577648648</ele>
      </trkpt>
      <trkpt lat="44.438693" lon="2.457277">
        <ele>457.1847238702703</ele>
      </trkpt>
      <trkpt lat="44.438446" lon="2.45728">
        <ele>457.8938807860835</ele>
      </trkpt>
      <trkpt lat="44.438361" lon="2.457141">
        <ele>459.7503416045296</ele>
      </trkpt>
      <trkpt lat="44.43834" lon="2.457067">
        <ele>460.33333545704494</ele>
      </trkpt>
      <trkpt lat="44.438354" lon="2.457015">
        <ele>460.96302810886453</ele>
      </trkpt>
      <trkpt lat="44.438396" lon="2.456912">
        <ele>462.0981622386962</ele>
      </trkpt>
      <trkpt lat="44.438587" lon="2.456679">
        <ele>464.1698758870695</ele>
      </trkpt>
      <trkpt lat="44.438831" lon="2.456267">
        <ele>466.9397062305885</ele>
      </trkpt>
      <trkpt lat="44.438995" lon="2.455812">
        <ele>468.9033208066569</ele>
      </trkpt>
      <trkpt lat="44.439068" lon="2.455524">
        <ele>469.6487177406452</ele>
      </trkpt>
      <trkpt lat="44.439093" lon="2.455339">
        <ele>470.9636967084954</ele>
      </trkpt>
      <trkpt lat="44.438905" lon="2.455199">
        <ele>475.0564463995409</ele>
      </trkpt>
      <trkpt lat="44.43876" lon="2.455049">
        <ele>478.5337624361172</ele>
      </trkpt>
      <trkpt lat="44.43855" lon="2.454853">
        <ele>483.9807032204337</ele>
      </trkpt>
      <trkpt lat="44.438213" lon="2.454631">
        <ele>490.1424927963649</ele>
      </trkpt>
      <trkpt lat="44.437983" lon="2.454326">
        <ele>494.275493561741</ele>
      </trkpt>
      <trkpt lat="44.437982" lon="2.454325">
        <ele>494.2904948580602</ele>
      </trkpt>
      <trkpt lat="44.437911" lon="2.454231">
        <ele>495.80384685345723</ele>
      </trkpt>
      <trkpt lat="44.437649" lon="2.454032">
        <ele>499.9696629331683</ele>
      </trkpt>
      <trkpt lat="44.437436" lon="2.453743">
        <ele>504.34694744609385</ele>
      </trkpt>
      <trkpt lat="44.437286" lon="2.45365">
        <ele>506.40081739494116</ele>
      </trkpt>
      <trkpt lat="44.437097" lon="2.453444">
        <ele>510.0775990115015</ele>
      </trkpt>
      <trkpt lat="44.436983" lon="2.453351">
        <ele>511.7354629890534</ele>
      </trkpt>
      <trkpt lat="44.436817" lon="2.453248">
        <ele>514.348986373578</ele>
      </trkpt>
      <trkpt lat="44.436719" lon="2.453233">
        <ele>515.7068122000524</ele>
      </trkpt>
      <trkpt lat="44.436639" lon="2.453255">
        <ele>516.0152115041427</ele>
      </trkpt>
      <trkpt lat="44.436563" lon="2.453245">
        <ele>516.6987592526892</ele>
      </trkpt>
      <trkpt lat="44.436133" lon="2.452926">
        <ele>522.1143768357123</ele>
      </trkpt>
      <trkpt lat="44.435732" lon="2.452724">
        <ele>523.9406220051004</ele>
      </trkpt>
      <trkpt lat="44.435228" lon="2.452602">
        <ele>524.3784998900733</ele>
      </trkpt>
      <trkpt lat="44.435148" lon="2.452601">
        <ele>524.2596168938098</ele>
      </trkpt>
      <trkpt lat="44.434934" lon="2.452672">
        <ele>522.6713399929463</ele>
      </trkpt>
      <trkpt lat="44.434773" lon="2.452669">
        <ele>522.0551765727037</ele>
      </trkpt>
      <trkpt lat="44.434546" lon="2.452643">
        <ele>521.1959288129659</ele>
      </trkpt>
      <trkpt lat="44.434152" lon="2.45252">
        <ele>520.527880687594</ele>
      </trkpt>
      <trkpt lat="44.433595" lon="2.452369">
        <ele>524.1091175131509</ele>
      </trkpt>
      <trkpt lat="44.432886" lon="2.452214">
        <ele>533.3826150350689</ele>
      </trkpt>
      <trkpt lat="44.432287" lon="2.451992">
        <ele>534.5895061942758</ele>
      </trkpt>
      <trkpt lat="44.432189" lon="2.451972">
        <ele>534.2264562231496</ele>
      </trkpt>
      <trkpt lat="44.432127" lon="2.451984">
        <ele>534.0800633134329</ele>
      </trkpt>
      <trkpt lat="44.432011" lon="2.452027">
        <ele>533.7158647384499</ele>
      </trkpt>
      <trkpt lat="44.431646" lon="2.452113">
        <ele>531.6332152948431</ele>
      </trkpt>
      <trkpt lat="44.431525" lon="2.452153">
        <ele>530.7662035859203</ele>
      </trkpt>
      <trkpt lat="44.431425" lon="2.452215">
        <ele>530.161076020497</ele>
      </trkpt>
      <trkpt lat="44.431331" lon="2.452301">
        <ele>529.5822405067752</ele>
      </trkpt>
      <trkpt lat="44.431265" lon="2.452389">
        <ele>529.1982918503003</ele>
      </trkpt>
      <trkpt lat="44.431202" lon="2.452446">
        <ele>528.6846876222879</ele>
      </trkpt>
      <trkpt lat="44.431153" lon="2.452462">
        <ele>528.1996275903662</ele>
      </trkpt>
      <trkpt lat="44.431098" lon="2.452447">
        <ele>527.5015720822391</ele>
      </trkpt>
      <trkpt lat="44.43096" lon="2.452315">
        <ele>525.5566522892616</ele>
      </trkpt>
      <trkpt lat="44.430817" lon="2.452194">
        <ele>523.7639986898353</ele>
      </trkpt>
      <trkpt lat="44.43082190702671" lon="2.452185565347577">
        <ele>523.7781651590623</ele>
      </trkpt>
      <trkpt lat="44.43082190702671" lon="2.452185565347577">
        <ele>523.7781651590623</ele>
      </trkpt>
      <trkpt lat="44.430848859015455" lon="2.452100745409707">
        <ele>523.4525528692486</ele>
      </trkpt>
      <trkpt lat="44.430848859015455" lon="2.452100745409707">
        <ele>523.8630438922597</ele>
      </trkpt>
      <trkpt lat="44.43123008215417" lon="2.452233657089323">
        <ele>528.2942511425197</ele>
      </trkpt>
      <trkpt lat="44.43160833279467" lon="2.4519850238741867">
        <ele>529.4512811330046</ele>
      </trkpt>
      <trkpt lat="44.43160833279467" lon="2.4519850238741867">
        <ele>529.4512811330046</ele>
      </trkpt>
      <trkpt lat="44.43205265270559" lon="2.4518882636775983">
        <ele>534.8239201421788</ele>
      </trkpt>
      <trkpt lat="44.432159669747534" lon="2.451864958419918">
        <ele>535.9708347340138</ele>
      </trkpt>
      <trkpt lat="44.432159669747534" lon="2.451864958419918">
        <ele>535.9708347340138</ele>
      </trkpt>
      <trkpt lat="44.432159669747534" lon="2.451864958419918">
        <ele>535.9708347340138</ele>
      </trkpt>
      <trkpt lat="44.43225039279386" lon="2.4513045918375553">
        <ele>534.9481206361206</ele>
      </trkpt>
      <trkpt lat="44.4324516960404" lon="2.4507415099480943">
        <ele>534.4078735606563</ele>
      </trkpt>
      <trkpt lat="44.43257957993987" lon="2.450383795360864">
        <ele>533.2925831898872</ele>
      </trkpt>
      <trkpt lat="44.43257957993987" lon="2.450383795360864">
        <ele>533.2925831898872</ele>
      </trkpt>
      <trkpt lat="44.43257957993987" lon="2.450383795360864">
        <ele>533.2925831898872</ele>
      </trkpt>
      <trkpt lat="44.432777038406655" lon="2.449818046397432">
        <ele>527.4303580569108</ele>
      </trkpt>
      <trkpt lat="44.43296986886003" lon="2.449265557406278">
        <ele>523.4734648414894</ele>
      </trkpt>
      <trkpt lat="44.43296986886003" lon="2.449265557406278">
        <ele>523.4734648414894</ele>
      </trkpt>
      <trkpt lat="44.432815854374795" lon="2.4486739332794927">
        <ele>514.2479027209447</ele>
      </trkpt>
      <trkpt lat="44.432802571100325" lon="2.448622907522747">
        <ele>513.2872361688167</ele>
      </trkpt>
      <trkpt lat="44.432509572845255" lon="2.4481452327171627">
        <ele>502.2936700664537</ele>
      </trkpt>
      <trkpt lat="44.43227663071164" lon="2.447765467355225">
        <ele>493.9271514598182</ele>
      </trkpt>
      <trkpt lat="44.43227663071164" lon="2.447765467355225">
        <ele>493.9271514598182</ele>
      </trkpt>
      <trkpt lat="44.43227663071164" lon="2.447765467355225">
        <ele>493.9271514598182</ele>
      </trkpt>
      <trkpt lat="44.432605035775374" lon="2.447335322793475">
        <ele>491.066274971558</ele>
      </trkpt>
      <trkpt lat="44.432895294826125" lon="2.446955141834138">
        <ele>483.56621550133065</ele>
      </trkpt>
      <trkpt lat="44.432895294826125" lon="2.446955141834138">
        <ele>483.56621550133065</ele>
      </trkpt>
      <trkpt lat="44.43327096496321" lon="2.4466090740422763">
        <ele>478.8116068512978</ele>
      </trkpt>
      <trkpt lat="44.433420026805834" lon="2.4464717580897">
        <ele>476.9112407865199</ele>
      </trkpt>
      <trkpt lat="44.433411" lon="2.446459">
        <ele>481.59</ele>
      </trkpt>
      <trkpt lat="44.43345" lon="2.446405">
        <ele>481.02</ele>
      </trkpt>
      <trkpt lat="44.433548" lon="2.44623">
        <ele>479.61</ele>
      </trkpt>
      <trkpt lat="44.433664" lon="2.4461">
        <ele>480.06</ele>
      </trkpt>
      <trkpt lat="44.433742" lon="2.446063">
        <ele>479.95</ele>
      </trkpt>
      <trkpt lat="44.433769" lon="2.446065">
        <ele>479.8</ele>
      </trkpt>
      <trkpt lat="44.433847" lon="2.44607">
        <ele>479.37</ele>
      </trkpt>
      <trkpt lat="44.433924" lon="2.446104">
        <ele>478.73</ele>
      </trkpt>
      <trkpt lat="44.434136" lon="2.446239">
        <ele>477.09</ele>
      </trkpt>
      <trkpt lat="44.434404" lon="2.446303">
        <ele>477.38</ele>
      </trkpt>
      <trkpt lat="44.434502" lon="2.446292">
        <ele>477.45</ele>
      </trkpt>
      <trkpt lat="44.434502" lon="2.446291">
        <ele>472.5299494410734</ele>
      </trkpt>
      <trkpt lat="44.434538" lon="2.446287">
        <ele>472.3723750036217</ele>
      </trkpt>
      <trkpt lat="44.43484" lon="2.446168">
        <ele>471.7448222313161</ele>
      </trkpt>
      <trkpt lat="44.4351" lon="2.446006">
        <ele>471.5590808191815</ele>
      </trkpt>
      <trkpt lat="44.435188" lon="2.445959">
        <ele>471.93265544061177</ele>
      </trkpt>
      <trkpt lat="44.435499" lon="2.445763">
        <ele>472.8469600097953</ele>
      </trkpt>
      <trkpt lat="44.435717" lon="2.445646">
        <ele>472.9435636996423</ele>
      </trkpt>
      <trkpt lat="44.435936" lon="2.445511">
        <ele>473.3310465486726</ele>
      </trkpt>
      <trkpt lat="44.436154" lon="2.445396">
        <ele>472.9952978612866</ele>
      </trkpt>
      <trkpt lat="44.436419" lon="2.445305">
        <ele>471.29681313525964</ele>
      </trkpt>
      <trkpt lat="44.436614" lon="2.445212">
        <ele>470.6387389959616</ele>
      </trkpt>
      <trkpt lat="44.436806" lon="2.445076">
        <ele>470.4326471900415</ele>
      </trkpt>
      <trkpt lat="44.437009" lon="2.44491">
        <ele>469.0418690486473</ele>
      </trkpt>
      <trkpt lat="44.437175" lon="2.444762">
        <ele>468.7158614858031</ele>
      </trkpt>
      <trkpt lat="44.43728" lon="2.444647">
        <ele>468.7238552680327</ele>
      </trkpt>
      <trkpt lat="44.437358" lon="2.444528">
        <ele>469.49652673453517</ele>
      </trkpt>
      <trkpt lat="44.437494" lon="2.44427">
        <ele>471.03319836547627</ele>
      </trkpt>
      <trkpt lat="44.437572" lon="2.444152">
        <ele>470.525244688057</ele>
      </trkpt>
      <trkpt lat="44.437631" lon="2.444064">
        <ele>470.1556534446656</ele>
      </trkpt>
      <trkpt lat="44.437733" lon="2.443982">
        <ele>469.21616508094735</ele>
      </trkpt>
      <trkpt lat="44.437843" lon="2.443923">
        <ele>468.321889650668</ele>
      </trkpt>
      <trkpt lat="44.438074" lon="2.443851">
        <ele>467.6365335940991</ele>
      </trkpt>
      <trkpt lat="44.438187" lon="2.443796">
        <ele>467.82777002658736</ele>
      </trkpt>
      <trkpt lat="44.438457" lon="2.44361">
        <ele>468.76458956813553</ele>
      </trkpt>
      <trkpt lat="44.43885" lon="2.443312">
        <ele>468.9625883837704</ele>
      </trkpt>
      <trkpt lat="44.439027" lon="2.443206">
        <ele>469.20461837258233</ele>
      </trkpt>
      <trkpt lat="44.43903" lon="2.44321">
        <ele>469.1528846509293</ele>
      </trkpt>
      <trkpt lat="44.43911" lon="2.44321">
        <ele>469.0863103999292</ele>
      </trkpt>
      <trkpt lat="44.43918" lon="2.44323">
        <ele>468.9073280001994</ele>
      </trkpt>
      <trkpt lat="44.43929" lon="2.4433">
        <ele>468.09176888866386</ele>
      </trkpt>
      <trkpt lat="44.43938" lon="2.44333">
        <ele>468.39359431117794</ele>
      </trkpt>
      <trkpt lat="44.43947" lon="2.44333">
        <ele>469.05369022386554</ele>
      </trkpt>
      <trkpt lat="44.43954" lon="2.44331">
        <ele>469.93128114668673</ele>
      </trkpt>
      <trkpt lat="44.43973" lon="2.44322">
        <ele>473.99777738123214</ele>
      </trkpt>
      <trkpt lat="44.43987" lon="2.44313">
        <ele>476.35295676647064</ele>
      </trkpt>
      <trkpt lat="44.43997" lon="2.44309">
        <ele>477.5901208638817</ele>
      </trkpt>
      <trkpt lat="44.4401" lon="2.44307">
        <ele>478.3867624047225</ele>
      </trkpt>
      <trkpt lat="44.44025" lon="2.44308">
        <ele>479.15603046151875</ele>
      </trkpt>
      <trkpt lat="44.44035" lon="2.44313">
        <ele>479.48861563867035</ele>
      </trkpt>
      <trkpt lat="44.44055" lon="2.44323">
        <ele>480.4737446050894</ele>
      </trkpt>
      <trkpt lat="44.44069" lon="2.44332">
        <ele>481.6257828332493</ele>
      </trkpt>
      <trkpt lat="44.44093" lon="2.44341">
        <ele>483.46630750124075</ele>
      </trkpt>
      <trkpt lat="44.441" lon="2.44343">
        <ele>483.5140575694387</ele>
      </trkpt>
      <trkpt lat="44.44109" lon="2.44345">
        <ele>483.4416031373534</ele>
      </trkpt>
      <trkpt lat="44.4413" lon="2.44345">
        <ele>483.15231656190093</ele>
      </trkpt>
      <trkpt lat="44.44162" lon="2.44331">
        <ele>483.7681696064547</ele>
      </trkpt>
      <trkpt lat="44.44163" lon="2.44326">
        <ele>483.9009965786723</ele>
      </trkpt>
      <trkpt lat="44.44165" lon="2.44324">
        <ele>483.98023702027353</ele>
      </trkpt>
      <trkpt lat="44.44167" lon="2.44324">
        <ele>484.012874095282</ele>
      </trkpt>
      <trkpt lat="44.44169" lon="2.44326">
        <ele>483.9989078037442</ele>
      </trkpt>
      <trkpt lat="44.44177" lon="2.44318">
        <ele>484.2227093011587</ele>
      </trkpt>
      <trkpt lat="44.44191" lon="2.44312">
        <ele>484.2925361329235</ele>
      </trkpt>
      <trkpt lat="44.44206" lon="2.44305">
        <ele>484.2990732393232</ele>
      </trkpt>
      <trkpt lat="44.44218" lon="2.44299">
        <ele>484.12337931921354</ele>
      </trkpt>
    </trkseg>
  </trk>
</gpx>
