<?xml version="1.0" encoding="UTF-8"?>
<gpx version="1.1" xmlns="http://www.topografix.com/GPX/1/1" xmlns:xsi="http://www.w3.org/2001/XMLSchema-instance" xsi:schemaLocation="http://www.topografix.com/GPX/1/1 http://www.topografix.com/GPX/1/1/gpx.xsd http://www.garmin.com/xmlschemas/GpxExtensions/v3 http://www.garmin.com/xmlschemas/GpxExtensionsv3.xsd http://www.garmin.com/xmlschemas/TrackPointExtension/v1 http://www.garmin.com/xmlschemas/TrackPointExtensionv1.xsd http://www.garmin.com/xmlschemas/PowerExtension/v1 http://www.garmin.com/xmlschemas/PowerExtensionv1.xsd http://www.topografix.com/GPX/gpx_style/0/2 http://www.topografix.com/GPX/gpx_style/0/2/gpx_style.xsd" xmlns:gpxtpx="http://www.garmin.com/xmlschemas/TrackPointExtension/v1" xmlns:gpxx="http://www.garmin.com/xmlschemas/GpxExtensions/v3" xmlns:gpxpx="http://www.garmin.com/xmlschemas/PowerExtension/v1" xmlns:gpx_style="http://www.topografix.com/GPX/gpx_style/0/2">
  <metadata>
    <name>5km</name>
    <author>
      <name>gpx.studio</name>
      <link href="https://gpx.studio"/>
    </author>
  </metadata>
  <trk>
    <name>5km</name>
    <extensions>
      <gpx_style:line>
        <gpx_style:color>ffba14</gpx_style:color>
      </gpx_style:line>
    </extensions>
    <trkseg>
      <trkpt lat="44.44311" lon="2.44259">
        <ele>483.09900420713274</ele>
      </trkpt>
      <trkpt lat="44.4433" lon="2.44237">
        <ele>482.4652504340288</ele>
      </trkpt>
      <trkpt lat="44.44331" lon="2.44238">
        <ele>482.4559141288987</ele>
      </trkpt>
      <trkpt lat="44.4433" lon="2.44237">
        <ele>482.4652504340288</ele>
      </trkpt>
      <trkpt lat="44.44331" lon="2.44234">
        <ele>482.3627073733612</ele>
      </trkpt>
      <trkpt lat="44.44332" lon="2.44231">
        <ele>482.2601643070588</ele>
      </trkpt>
      <trkpt lat="44.44338" lon="2.44215">
        <ele>481.75673058496403</ele>
      </trkpt>
      <trkpt lat="44.44344" lon="2.44199">
        <ele>481.1827422873768</ele>
      </trkpt>
      <trkpt lat="44.44345" lon="2.44195">
        <ele>481.0338773333007</ele>
      </trkpt>
      <trkpt lat="44.44347" lon="2.4419">
        <ele>480.8349292872017</ele>
      </trkpt>
      <trkpt lat="44.44347" lon="2.44176">
        <ele>480.3455938205592</ele>
      </trkpt>
      <trkpt lat="44.4435" lon="2.44178">
        <ele>480.31758460342013</ele>
      </trkpt>
      <trkpt lat="44.44351" lon="2.44179">
        <ele>480.31989903096195</ele>
      </trkpt>
      <trkpt lat="44.4438" lon="2.44201">
        <ele>479.24412837987813</ele>
      </trkpt>
      <trkpt lat="44.44397" lon="2.44211">
        <ele>477.6960826038861</ele>
      </trkpt>
      <trkpt lat="44.44406" lon="2.44215">
        <ele>476.80848033889254</ele>
      </trkpt>
      <trkpt lat="44.44416" lon="2.44214">
        <ele>475.71078312280736</ele>
      </trkpt>
      <trkpt lat="44.44475" lon="2.44196">
        <ele>476.0765426720028</ele>
      </trkpt>
      <trkpt lat="44.44481" lon="2.44194">
        <ele>476.6313203113164</ele>
      </trkpt>
      <trkpt lat="44.44484" lon="2.44193">
        <ele>476.95653709131386</ele>
      </trkpt>
      <trkpt lat="44.44517" lon="2.44179">
        <ele>481.21937459534684</ele>
      </trkpt>
      <trkpt lat="44.44528" lon="2.44176">
        <ele>482.17989886199814</ele>
      </trkpt>
      <trkpt lat="44.44536" lon="2.44175">
        <ele>482.5277101233147</ele>
      </trkpt>
      <trkpt lat="44.44539" lon="2.44172">
        <ele>482.47083415667066</ele>
      </trkpt>
      <trkpt lat="44.44553" lon="2.44164">
        <ele>482.22860820849894</ele>
      </trkpt>
      <trkpt lat="44.44562" lon="2.44161">
        <ele>482.0636607999919</ele>
      </trkpt>
      <trkpt lat="44.44573" lon="2.44159">
        <ele>482.01690069954634</ele>
      </trkpt>
      <trkpt lat="44.44592" lon="2.44157">
        <ele>482.14556911145394</ele>
      </trkpt>
      <trkpt lat="44.44606" lon="2.44154">
        <ele>482.5554421298357</ele>
      </trkpt>
      <trkpt lat="44.44658" lon="2.44139">
        <ele>485.7769476705702</ele>
      </trkpt>
      <trkpt lat="44.44673" lon="2.44132">
        <ele>485.9996185493666</ele>
      </trkpt>
      <trkpt lat="44.44689" lon="2.44121">
        <ele>485.06065226127413</ele>
      </trkpt>
      <trkpt lat="44.44697" lon="2.44116">
        <ele>484.68278682833386</ele>
      </trkpt>
      <trkpt lat="44.44706" lon="2.44109">
        <ele>484.6708091814077</ele>
      </trkpt>
      <trkpt lat="44.44725" lon="2.44099">
        <ele>484.9695246390569</ele>
      </trkpt>
      <trkpt lat="44.44744" lon="2.44088">
        <ele>485.2222917031039</ele>
      </trkpt>
      <trkpt lat="44.448" lon="2.44058">
        <ele>486.1858060860264</ele>
      </trkpt>
      <trkpt lat="44.44812" lon="2.44051">
        <ele>486.10071075254046</ele>
      </trkpt>
      <trkpt lat="44.44823" lon="2.44045">
        <ele>485.9744077270351</ele>
      </trkpt>
      <trkpt lat="44.44848" lon="2.44025">
        <ele>485.1949456237265</ele>
      </trkpt>
      <trkpt lat="44.44874" lon="2.44003">
        <ele>485.1664470456672</ele>
      </trkpt>
      <trkpt lat="44.44911" lon="2.43967">
        <ele>486.4627660544847</ele>
      </trkpt>
      <trkpt lat="44.44946" lon="2.43941">
        <ele>486.14690405773024</ele>
      </trkpt>
      <trkpt lat="44.4497" lon="2.43919">
        <ele>485.4829273452056</ele>
      </trkpt>
      <trkpt lat="44.44983" lon="2.43907">
        <ele>485.4506859795668</ele>
      </trkpt>
      <trkpt lat="44.44992" lon="2.43902">
        <ele>485.64770373329566</ele>
      </trkpt>
      <trkpt lat="44.44999" lon="2.43902">
        <ele>485.8981902682696</ele>
      </trkpt>
      <trkpt lat="44.45008" lon="2.43905">
        <ele>486.39484903579586</ele>
      </trkpt>
      <trkpt lat="44.45007" lon="2.4391">
        <ele>486.579682601384</ele>
      </trkpt>
      <trkpt lat="44.45008" lon="2.43905">
        <ele>486.39484903579586</ele>
      </trkpt>
      <trkpt lat="44.45023" lon="2.43904">
        <ele>486.73781688879353</ele>
      </trkpt>
      <trkpt lat="44.45049" lon="2.43897">
        <ele>486.3108015957763</ele>
      </trkpt>
      <trkpt lat="44.45058" lon="2.43893">
        <ele>486.02511852007245</ele>
      </trkpt>
      <trkpt lat="44.45077" lon="2.43891">
        <ele>486.89785585812933</ele>
      </trkpt>
      <trkpt lat="44.45087" lon="2.43889">
        <ele>487.71050135721526</ele>
      </trkpt>
      <trkpt lat="44.45126" lon="2.43875">
        <ele>491.15098305977983</ele>
      </trkpt>
      <trkpt lat="44.45183" lon="2.43847">
        <ele>492.640482268623</ele>
      </trkpt>
      <trkpt lat="44.45192" lon="2.43841">
        <ele>493.0290846204163</ele>
      </trkpt>
      <trkpt lat="44.45266" lon="2.43768">
        <ele>498.61254897560013</ele>
      </trkpt>
      <trkpt lat="44.45296" lon="2.43735">
        <ele>499.9495239080827</ele>
      </trkpt>
      <trkpt lat="44.45314" lon="2.43718">
        <ele>500.44195218721967</ele>
      </trkpt>
      <trkpt lat="44.45352" lon="2.43688">
        <ele>502.5237842788109</ele>
      </trkpt>
      <trkpt lat="44.45365" lon="2.43674">
        <ele>503.4637550411862</ele>
      </trkpt>
      <trkpt lat="44.45386" lon="2.43643">
        <ele>503.30712081277215</ele>
      </trkpt>
      <trkpt lat="44.45404" lon="2.43615">
        <ele>501.24699801872504</ele>
      </trkpt>
      <trkpt lat="44.45424" lon="2.43588">
        <ele>499.2391882813569</ele>
      </trkpt>
      <trkpt lat="44.45444" lon="2.43559">
        <ele>498.68306978294</ele>
      </trkpt>
      <trkpt lat="44.4546" lon="2.43539">
        <ele>498.36498055399693</ele>
      </trkpt>
      <trkpt lat="44.45478" lon="2.43523">
        <ele>496.7104006774352</ele>
      </trkpt>
      <trkpt lat="44.45499" lon="2.43505">
        <ele>494.0436612246058</ele>
      </trkpt>
      <trkpt lat="44.45521" lon="2.43493">
        <ele>491.16627113335096</ele>
      </trkpt>
      <trkpt lat="44.45543" lon="2.43484">
        <ele>487.78683574255604</ele>
      </trkpt>
      <trkpt lat="44.45571" lon="2.43476">
        <ele>484.48303378544887</ele>
      </trkpt>
      <trkpt lat="44.45591" lon="2.43473">
        <ele>482.41728561827324</ele>
      </trkpt>
      <trkpt lat="44.45617" lon="2.43472">
        <ele>480.06554241220095</ele>
      </trkpt>
      <trkpt lat="44.45649" lon="2.43474">
        <ele>476.3828599770095</ele>
      </trkpt>
      <trkpt lat="44.45686" lon="2.4348">
        <ele>472.8850923241011</ele>
      </trkpt>
      <trkpt lat="44.45708" lon="2.43487">
        <ele>473.02077368889087</ele>
      </trkpt>
      <trkpt lat="44.4573" lon="2.43479">
        <ele>471.76740835579193</ele>
      </trkpt>
      <trkpt lat="44.45737" lon="2.43479">
        <ele>471.767408355792</ele>
      </trkpt>
      <trkpt lat="44.45744" lon="2.43483">
        <ele>472.1057206200447</ele>
      </trkpt>
      <trkpt lat="44.45761" lon="2.43494">
        <ele>472.9824768032598</ele>
      </trkpt>
      <trkpt lat="44.4578" lon="2.4351">
        <ele>472.27930492858263</ele>
      </trkpt>
      <trkpt lat="44.45804" lon="2.43531">
        <ele>471.7499026178015</ele>
      </trkpt>
      <trkpt lat="44.45807" lon="2.43537">
        <ele>471.5412893010854</ele>
      </trkpt>
      <trkpt lat="44.45807" lon="2.43547">
        <ele>471.6004416931539</ele>
      </trkpt>
      <trkpt lat="44.45802" lon="2.43556">
        <ele>471.64765661693764</ele>
      </trkpt>
      <trkpt lat="44.45793" lon="2.43562">
        <ele>471.1860307547738</ele>
      </trkpt>
      <trkpt lat="44.45784" lon="2.43566">
        <ele>470.30434855496094</ele>
      </trkpt>
      <trkpt lat="44.45771" lon="2.43568">
        <ele>469.5861709055498</ele>
      </trkpt>
      <trkpt lat="44.45759" lon="2.43569">
        <ele>469.15261112669396</ele>
      </trkpt>
      <trkpt lat="44.45744" lon="2.43574">
        <ele>468.44379875552875</ele>
      </trkpt>
      <trkpt lat="44.45735" lon="2.4358">
        <ele>467.67378017643205</ele>
      </trkpt>
      <trkpt lat="44.45725" lon="2.43589">
        <ele>466.6846576835974</ele>
      </trkpt>
      <trkpt lat="44.45717" lon="2.436">
        <ele>465.4947027033652</ele>
      </trkpt>
      <trkpt lat="44.4571" lon="2.43614">
        <ele>464.3278401104739</ele>
      </trkpt>
      <trkpt lat="44.45708" lon="2.43623">
        <ele>463.5617446872922</ele>
      </trkpt>
      <trkpt lat="44.45708" lon="2.43637">
        <ele>462.61687563588004</ele>
      </trkpt>
      <trkpt lat="44.4571" lon="2.43655">
        <ele>461.2422692760481</ele>
      </trkpt>
      <trkpt lat="44.45714" lon="2.43678">
        <ele>461.07695592413233</ele>
      </trkpt>
      <trkpt lat="44.45722" lon="2.437">
        <ele>460.35375423897466</ele>
      </trkpt>
      <trkpt lat="44.45737" lon="2.43732">
        <ele>458.4602605095954</ele>
      </trkpt>
      <trkpt lat="44.45741" lon="2.43743">
        <ele>458.10558385786135</ele>
      </trkpt>
      <trkpt lat="44.45744" lon="2.43753">
        <ele>457.9163274761732</ele>
      </trkpt>
      <trkpt lat="44.45744" lon="2.43759">
        <ele>458.2047015198179</ele>
      </trkpt>
      <trkpt lat="44.45744" lon="2.43759">
        <ele>458.2047015198179</ele>
      </trkpt>
      <trkpt lat="44.45744" lon="2.43767">
        <ele>458.6691527692383</ele>
      </trkpt>
      <trkpt lat="44.45743" lon="2.43776">
        <ele>459.3382290955644</ele>
      </trkpt>
      <trkpt lat="44.45746" lon="2.43796">
        <ele>459.51296672832353</ele>
      </trkpt>
      <trkpt lat="44.45751" lon="2.43804">
        <ele>458.4371911889775</ele>
      </trkpt>
      <trkpt lat="44.45752" lon="2.43808">
        <ele>458.2617953252096</ele>
      </trkpt>
      <trkpt lat="44.457516" lon="2.438079">
        <ele>458.3623396333934</ele>
      </trkpt>
      <trkpt lat="44.457497" lon="2.438287">
        <ele>458.56882830416384</ele>
      </trkpt>
      <trkpt lat="44.457494" lon="2.438392">
        <ele>458.12506272774294</ele>
      </trkpt>
      <trkpt lat="44.457566" lon="2.438649">
        <ele>453.41414154559993</ele>
      </trkpt>
      <trkpt lat="44.457574" lon="2.438704">
        <ele>452.29573278191805</ele>
      </trkpt>
      <trkpt lat="44.457566" lon="2.438762">
        <ele>451.74235215841276</ele>
      </trkpt>
      <trkpt lat="44.457551" lon="2.438813">
        <ele>451.6306373724722</ele>
      </trkpt>
      <trkpt lat="44.457517" lon="2.438896">
        <ele>452.0953578889701</ele>
      </trkpt>
      <trkpt lat="44.457491" lon="2.439104">
        <ele>452.02237809456085</ele>
      </trkpt>
      <trkpt lat="44.457493" lon="2.43915">
        <ele>451.81530354505253</ele>
      </trkpt>
      <trkpt lat="44.457511" lon="2.439199">
        <ele>451.37900791348966</ele>
      </trkpt>
      <trkpt lat="44.457515" lon="2.439302">
        <ele>451.80728765571195</ele>
      </trkpt>
      <trkpt lat="44.457534" lon="2.439372">
        <ele>451.8871911598681</ele>
      </trkpt>
      <trkpt lat="44.457594" lon="2.439439">
        <ele>451.41224154568226</ele>
      </trkpt>
      <trkpt lat="44.457668" lon="2.43952">
        <ele>451.3680676367708</ele>
      </trkpt>
      <trkpt lat="44.457762" lon="2.439588">
        <ele>451.5155590191985</ele>
      </trkpt>
      <trkpt lat="44.457846" lon="2.439706">
        <ele>452.75673471341565</ele>
      </trkpt>
      <trkpt lat="44.457949" lon="2.440121">
        <ele>458.6752029417555</ele>
      </trkpt>
      <trkpt lat="44.458122" lon="2.440398">
        <ele>462.32636801582674</ele>
      </trkpt>
      <trkpt lat="44.458435" lon="2.440833">
        <ele>462.1047971311498</ele>
      </trkpt>
      <trkpt lat="44.458558" lon="2.440982">
        <ele>461.5101532664048</ele>
      </trkpt>
      <trkpt lat="44.458719" lon="2.441213">
        <ele>462.0585505184064</ele>
      </trkpt>
      <trkpt lat="44.458826" lon="2.441406">
        <ele>464.694196424394</ele>
      </trkpt>
      <trkpt lat="44.458721" lon="2.441358">
        <ele>466.0608481323969</ele>
      </trkpt>
      <trkpt lat="44.458773" lon="2.441479">
        <ele>468.0131660029817</ele>
      </trkpt>
      <trkpt lat="44.458816" lon="2.44162">
        <ele>470.636378648319</ele>
      </trkpt>
      <trkpt lat="44.458944" lon="2.441883">
        <ele>473.588649024579</ele>
      </trkpt>
      <trkpt lat="44.459026" lon="2.4421">
        <ele>474.756596075139</ele>
      </trkpt>
      <trkpt lat="44.45906" lon="2.442268">
        <ele>475.4220253782993</ele>
      </trkpt>
      <trkpt lat="44.459103" lon="2.442659">
        <ele>477.6978744101976</ele>
      </trkpt>
      <trkpt lat="44.459104" lon="2.44266">
        <ele>477.6806778946538</ele>
      </trkpt>
      <trkpt lat="44.459103" lon="2.442659">
        <ele>477.6978744101976</ele>
      </trkpt>
      <trkpt lat="44.459105" lon="2.442668">
        <ele>477.7262143352784</ele>
      </trkpt>
      <trkpt lat="44.459095" lon="2.442741">
        <ele>478.6582491594578</ele>
      </trkpt>
      <trkpt lat="44.459087" lon="2.442775">
        <ele>479.11877861614425</ele>
      </trkpt>
      <trkpt lat="44.459026" lon="2.442821">
        <ele>481.03445529639754</ele>
      </trkpt>
      <trkpt lat="44.458862" lon="2.442889">
        <ele>483.7624508858667</ele>
      </trkpt>
      <trkpt lat="44.458737" lon="2.442958">
        <ele>485.7183890900113</ele>
      </trkpt>
      <trkpt lat="44.458613" lon="2.443048">
        <ele>487.3644364036162</ele>
      </trkpt>
      <trkpt lat="44.45844" lon="2.443201">
        <ele>489.733554319759</ele>
      </trkpt>
      <trkpt lat="44.458069" lon="2.443497">
        <ele>492.2195860156332</ele>
      </trkpt>
      <trkpt lat="44.457914" lon="2.443637">
        <ele>492.75610166041724</ele>
      </trkpt>
      <trkpt lat="44.457643" lon="2.443821">
        <ele>494.5620736292183</ele>
      </trkpt>
      <trkpt lat="44.45746" lon="2.444002">
        <ele>495.20286230734996</ele>
      </trkpt>
      <trkpt lat="44.457149" lon="2.444432">
        <ele>497.24662191355696</ele>
      </trkpt>
      <trkpt lat="44.45705" lon="2.444534">
        <ele>497.4530042059258</ele>
      </trkpt>
      <trkpt lat="44.456919" lon="2.444628">
        <ele>497.5183670366656</ele>
      </trkpt>
      <trkpt lat="44.456833" lon="2.444659">
        <ele>497.23351969467546</ele>
      </trkpt>
      <trkpt lat="44.456712" lon="2.444778">
        <ele>497.02125642197257</ele>
      </trkpt>
      <trkpt lat="44.456578" lon="2.444884">
        <ele>496.60911796316555</ele>
      </trkpt>
      <trkpt lat="44.456578" lon="2.444884">
        <ele>496.60911796316555</ele>
      </trkpt>
      <trkpt lat="44.456545" lon="2.444911">
        <ele>496.5238721851534</ele>
      </trkpt>
      <trkpt lat="44.45639" lon="2.444993">
        <ele>496.06476642016287</ele>
      </trkpt>
      <trkpt lat="44.455975" lon="2.445149">
        <ele>495.14656189815184</ele>
      </trkpt>
      <trkpt lat="44.455807" lon="2.445258">
        <ele>495.63937313989794</ele>
      </trkpt>
      <trkpt lat="44.455557" lon="2.445482">
        <ele>497.2011900414255</ele>
      </trkpt>
      <trkpt lat="44.455557" lon="2.445482">
        <ele>497.2011900414255</ele>
      </trkpt>
      <trkpt lat="44.455474" lon="2.445557">
        <ele>497.85250249644525</ele>
      </trkpt>
      <trkpt lat="44.455282" lon="2.445736">
        <ele>498.8989074192385</ele>
      </trkpt>
      <trkpt lat="44.455151" lon="2.445898">
        <ele>498.90000000000146</ele>
      </trkpt>
      <trkpt lat="44.455051" lon="2.446051">
        <ele>498.8130501308723</ele>
      </trkpt>
      <trkpt lat="44.454993" lon="2.44614">
        <ele>498.63676191801255</ele>
      </trkpt>
      <trkpt lat="44.454993" lon="2.446133">
        <ele>498.63676191801255</ele>
      </trkpt>
      <trkpt lat="44.454993" lon="2.446133">
        <ele>497.75</ele>
      </trkpt>
      <trkpt lat="44.454993" lon="2.44614">
        <ele>497.75</ele>
      </trkpt>
      <trkpt lat="44.454919" lon="2.446281">
        <ele>497.5</ele>
      </trkpt>
      <trkpt lat="44.454841" lon="2.446401">
        <ele>497.25</ele>
      </trkpt>
      <trkpt lat="44.454777" lon="2.446327">
        <ele>497</ele>
      </trkpt>
      <trkpt lat="44.454567" lon="2.446639">
        <ele>496.25</ele>
      </trkpt>
      <trkpt lat="44.454464" lon="2.446845">
        <ele>495.75</ele>
      </trkpt>
      <trkpt lat="44.454327" lon="2.447182">
        <ele>495.25</ele>
      </trkpt>
      <trkpt lat="44.454153" lon="2.447573">
        <ele>494.5</ele>
      </trkpt>
      <trkpt lat="44.45347" lon="2.448901">
        <ele>490.5</ele>
      </trkpt>
      <trkpt lat="44.453332" lon="2.449228">
        <ele>490.5</ele>
      </trkpt>
      <trkpt lat="44.453198" lon="2.449466">
        <ele>488.75</ele>
      </trkpt>
      <trkpt lat="44.453088" lon="2.449715">
        <ele>487</ele>
      </trkpt>
      <trkpt lat="44.453" lon="2.44995">
        <ele>485.75</ele>
      </trkpt>
      <trkpt lat="44.452892" lon="2.450289">
        <ele>483.75</ele>
      </trkpt>
      <trkpt lat="44.452814" lon="2.450562">
        <ele>482.25</ele>
      </trkpt>
      <trkpt lat="44.452581" lon="2.451186">
        <ele>480.5</ele>
      </trkpt>
      <trkpt lat="44.452278" lon="2.451027">
        <ele>480.25</ele>
      </trkpt>
      <trkpt lat="44.452108" lon="2.450893">
        <ele>480.25</ele>
      </trkpt>
      <trkpt lat="44.451905" lon="2.450714">
        <ele>480.25</ele>
      </trkpt>
      <trkpt lat="44.45187" lon="2.450638">
        <ele>480.5</ele>
      </trkpt>
      <trkpt lat="44.451819" lon="2.45057">
        <ele>480.75</ele>
      </trkpt>
      <trkpt lat="44.451769" lon="2.450519">
        <ele>480.75</ele>
      </trkpt>
      <trkpt lat="44.451768" lon="2.450518">
        <ele>480.75</ele>
      </trkpt>
      <trkpt lat="44.451681" lon="2.450431">
        <ele>480.75</ele>
      </trkpt>
      <trkpt lat="44.451294" lon="2.450149">
        <ele>478.25</ele>
      </trkpt>
      <trkpt lat="44.451069" lon="2.449939">
        <ele>477.5</ele>
      </trkpt>
      <trkpt lat="44.450798" lon="2.449574">
        <ele>477.25</ele>
      </trkpt>
      <trkpt lat="44.450721" lon="2.449433">
        <ele>477.5</ele>
      </trkpt>
      <trkpt lat="44.450602" lon="2.44906">
        <ele>478.25</ele>
      </trkpt>
      <trkpt lat="44.450504" lon="2.448843">
        <ele>478.25</ele>
      </trkpt>
      <trkpt lat="44.450272" lon="2.448446">
        <ele>479.75</ele>
      </trkpt>
      <trkpt lat="44.450183" lon="2.448317">
        <ele>480.5</ele>
      </trkpt>
      <trkpt lat="44.450103" lon="2.448232">
        <ele>480.5</ele>
      </trkpt>
      <trkpt lat="44.449991" lon="2.448137">
        <ele>480.5</ele>
      </trkpt>
      <trkpt lat="44.449875" lon="2.448064">
        <ele>479.75</ele>
      </trkpt>
      <trkpt lat="44.449465" lon="2.447885">
        <ele>477.5</ele>
      </trkpt>
      <trkpt lat="44.449379" lon="2.447835">
        <ele>477.25</ele>
      </trkpt>
      <trkpt lat="44.449287" lon="2.44774">
        <ele>476.75</ele>
      </trkpt>
      <trkpt lat="44.44911" lon="2.447444">
        <ele>476.75</ele>
      </trkpt>
      <trkpt lat="44.448926" lon="2.447267">
        <ele>476.75</ele>
      </trkpt>
      <trkpt lat="44.448728" lon="2.446951">
        <ele>478.5</ele>
      </trkpt>
      <trkpt lat="44.448452" lon="2.44646">
        <ele>481</ele>
      </trkpt>
      <trkpt lat="44.448393" lon="2.446359">
        <ele>481</ele>
      </trkpt>
      <trkpt lat="44.448219" lon="2.446059">
        <ele>480.5</ele>
      </trkpt>
      <trkpt lat="44.448105" lon="2.445878">
        <ele>480.25</ele>
      </trkpt>
      <trkpt lat="44.447989" lon="2.4457">
        <ele>479.75</ele>
      </trkpt>
      <trkpt lat="44.447821" lon="2.445421">
        <ele>480</ele>
      </trkpt>
      <trkpt lat="44.447721" lon="2.445313">
        <ele>480.25</ele>
      </trkpt>
      <trkpt lat="44.447527" lon="2.445209">
        <ele>479.5</ele>
      </trkpt>
      <trkpt lat="44.44743" lon="2.445134">
        <ele>479.75</ele>
      </trkpt>
      <trkpt lat="44.44735" lon="2.445045">
        <ele>480</ele>
      </trkpt>
      <trkpt lat="44.447209" lon="2.444841">
        <ele>480.25</ele>
      </trkpt>
      <trkpt lat="44.447042" lon="2.444463">
        <ele>481.25</ele>
      </trkpt>
      <trkpt lat="44.446837" lon="2.443913">
        <ele>483.25</ele>
      </trkpt>
      <trkpt lat="44.446771" lon="2.443776">
        <ele>484</ele>
      </trkpt>
      <trkpt lat="44.44677" lon="2.443775">
        <ele>483.75</ele>
      </trkpt>
      <trkpt lat="44.446738" lon="2.443707">
        <ele>484</ele>
      </trkpt>
      <trkpt lat="44.446643" lon="2.443588">
        <ele>484</ele>
      </trkpt>
      <trkpt lat="44.446561" lon="2.443507">
        <ele>483.75</ele>
      </trkpt>
      <trkpt lat="44.446438" lon="2.443409">
        <ele>483.5</ele>
      </trkpt>
      <trkpt lat="44.446312" lon="2.443336">
        <ele>483.25</ele>
      </trkpt>
      <trkpt lat="44.446197" lon="2.443318">
        <ele>482.5</ele>
      </trkpt>
      <trkpt lat="44.446043" lon="2.443349">
        <ele>481.25</ele>
      </trkpt>
      <trkpt lat="44.445979" lon="2.443346">
        <ele>480.75</ele>
      </trkpt>
      <trkpt lat="44.44586" lon="2.443318">
        <ele>480.25</ele>
      </trkpt>
      <trkpt lat="44.445707" lon="2.44321">
        <ele>479</ele>
      </trkpt>
      <trkpt lat="44.445707" lon="2.44321">
        <ele>479</ele>
      </trkpt>
      <trkpt lat="44.445561" lon="2.443028">
        <ele>478.25</ele>
      </trkpt>
      <trkpt lat="44.445423" lon="2.442835">
        <ele>478.25</ele>
      </trkpt>
      <trkpt lat="44.445341" lon="2.442747">
        <ele>478.25</ele>
      </trkpt>
      <trkpt lat="44.445126" lon="2.442507">
        <ele>478.5</ele>
      </trkpt>
      <trkpt lat="44.445094" lon="2.44247">
        <ele>478.5</ele>
      </trkpt>
      <trkpt lat="44.445009" lon="2.442341">
        <ele>478.25</ele>
      </trkpt>
      <trkpt lat="44.444745" lon="2.441964">
        <ele>478.5</ele>
      </trkpt>
      <trkpt lat="44.444158" lon="2.442139">
        <ele>476.75</ele>
      </trkpt>
      <trkpt lat="44.444058" lon="2.442146">
        <ele>477.25</ele>
      </trkpt>
      <trkpt lat="44.443973" lon="2.442115">
        <ele>477.75</ele>
      </trkpt>
      <trkpt lat="44.443798" lon="2.442005">
        <ele>478.75</ele>
      </trkpt>
      <trkpt lat="44.44351" lon="2.44179">
        <ele>479.5</ele>
      </trkpt>
      <trkpt lat="44.443473" lon="2.441756">
        <ele>479.75</ele>
      </trkpt>
      <trkpt lat="44.443467" lon="2.441897">
        <ele>480</ele>
      </trkpt>
      <trkpt lat="44.443453" lon="2.441945">
        <ele>480</ele>
      </trkpt>
      <trkpt lat="44.443441" lon="2.441987">
        <ele>480.25</ele>
      </trkpt>
      <trkpt lat="44.443377" lon="2.442149">
        <ele>480.75</ele>
      </trkpt>
      <trkpt lat="44.443318" lon="2.442312">
        <ele>481.5</ele>
      </trkpt>
      <trkpt lat="44.443305" lon="2.442342">
        <ele>481.5</ele>
      </trkpt>
      <trkpt lat="44.443295" lon="2.442371">
        <ele>481.75</ele>
      </trkpt>
      <trkpt lat="44.443109" lon="2.442589">
        <ele>482.5</ele>
      </trkpt>
      <trkpt lat="44.44311" lon="2.44259">
        <ele>483.09900420713274</ele>
      </trkpt>
      <trkpt lat="44.443109" lon="2.442589">
        <ele>483.09947101692705</ele>
      </trkpt>
      <trkpt lat="44.443108" lon="2.442591">
        <ele>483.1034330800412</ele>
      </trkpt>
      <trkpt lat="44.442927" lon="2.442696">
        <ele>483.34711210667285</ele>
      </trkpt>
      <trkpt lat="44.442747" lon="2.442815">
        <ele>483.5535239808264</ele>
      </trkpt>
      <trkpt lat="44.442732" lon="2.442818">
        <ele>483.58149749266477</ele>
      </trkpt>
      <trkpt lat="44.442426" lon="2.442879">
        <ele>483.97095506661674</ele>
      </trkpt>
      <trkpt lat="44.442176" lon="2.442996">
        <ele>484.10964125760574</ele>
      </trkpt>
      <trkpt lat="44.442164" lon="2.443001">
        <ele>484.1329036576366</ele>
      </trkpt>
    </trkseg>
  </trk>
</gpx>
